X,Y,OBJECTID,ID,TRAEGER,BEZEICHNUNG,KURZBEZEICHNUNG,STRASSE,STRSCHL,HAUSBEZ,PLZ,ORT,HORT,KITA,URL,TELEFON,FAX,EMAIL,BARRIEREFREI,INTEGRATIV
12.8843699240534,50.8068085244813,1,15,KINDERVEREINIGUNG Chemnitz e. V.,"Straße Usti nad Labem 197 ""FRIDOLIN""","Straße Usti nad Labem 197 ""FRIDOLIN""",Straße Usti nad Labem,9300,197,09119,Chemnitz,0,1,,0371 52455487,,fridolin@kindervereinigung-chemnitz.de,0,1
12.909709819865,50.8205584525106,2,16,Privater Träger,"Parkstraße 13 ""Zappelkiste-Kleine Menschen ganz groß"", Kindertagespflege","Parkstraße 13 ""Zappelkiste-Kleine Menschen ganz groß"", Kindertagespflege",Parkstraße,9265,13,09120,Chemnitz,0,1,,0163 8323511,,dani@immoss.de,0,0
12.9625693644843,50.8310511815738,3,17,Privater Träger,"Clausewitzstraße 6 ""Zwergenland"", Kindertagespflege","Clausewitzstraße 6 ""Zwergenland"", Kindertagespflege",Clausewitzstraße,5195,6,09130,Chemnitz,0,1,,0178 3410698,,heike.bruehl1@freenet.de,0,0
12.9401380561746,50.761791635871,4,18,Privater Träger,"Berbisdorfer Straße 151 ""Connys Zwergengarten"", Kindertagespflege","Berbisdorfer Straße 151 ""Connys Zwergengarten"", Kindertagespflege",Berbisdorfer Straße,7139,151,09123,Chemnitz,0,1,https://www.connyszwergengarten.de,0173 1984077,,cornelia.krake@web.de,0,0
12.9193998357456,50.8369783971097,5,19,Privater Träger,"Brückenstraße 21 ""Villa Marienkäfer"", Kindertagespflege","Brückenstraße 21 ""Villa Marienkäfer"", Kindertagespflege",Brückenstraße,1165,21,09111,Chemnitz,0,1,,0162 6792154,,v.marienkaefer@gmail.com,0,0
12.8878830195429,50.7917184717951,6,20,Stadt Chemnitz,"Albert-Köhler-Straße 91, Hort A.-Einstein-GS","Albert-Köhler-Straße 91, Hort A.-Einstein-GS",Albert-Köhler-Straße,8100,91,09122,Chemnitz,1,0,,0371 227044,,kita-koehlerstr@stadt-chemnitz.de,0,1
12.9616573951099,50.8261282756165,7,21,Privater Träger,"Arthur-Strobel-Straße 27 ""Die bunten Knöpfchen"", Kindertagespflege","Arthur-Strobel-Straße 27 ""Die bunten Knöpfchen"", Kindertagespflege",Arthur-Strobel-Straße,5155,27,09127,Chemnitz,0,1,,0152 06551563,,eger99@arcor.de,0,0
12.839152078457,50.8163106179718,8,22,Privater Träger,"Nevoigtstraße 5 ""Fichtenwichtel"", Kindertagespflege","Nevoigtstraße 5 ""Fichtenwichtel"", Kindertagespflege",Nevoigtstraße,11490,5,09117,Chemnitz,0,1,,0171 7971903,,mikedinter@freenet.de,0,0
12.8840199234969,50.8061885306819,9,23,Privater Träger,"Straße Usti nad Labem 211 ""Susi's kleine Bienchen"", Kindertagespflege","Straße Usti nad Labem 211 ""Susi's kleine Bienchen"", Kindertagespflege",Straße Usti nad Labem,9300,211,09119,Chemnitz,0,1,,0152 54106625,,susiskleinebienchen@hotmail.com,0,0
12.8982606525492,50.7893195521866,10,24,Stadt Chemnitz,Max-Müller-Straße 11,Max-Müller-Straße 11,Max-Müller-Straße,8220,11,09123,Chemnitz,0,1,,0371 49529900,,kita-maxmuellerstr@stadt-chemnitz.de,1,1
12.970579329706,50.8240982955279,11,25,Privater Träger,"Carl-von-Ossietzky-Straße 248 ""Schneeflöckchen"", Kindertagespflege","Carl-von-Ossietzky-Straße 248 ""Schneeflöckchen"", Kindertagespflege",Carl-von-Ossietzky-Straß,24110,248,09126,Chemnitz,0,1,,0174 9813765,,m-kahl@freenet.de,0,0
12.932002687133,50.8486333511858,12,26,Privater Träger,"Straße der Nationen 91 ""Mäusestübchen"", Kindertagespflege","Straße der Nationen 91 ""Mäusestübchen"", Kindertagespflege",Straße der Nationen,1570,91,09113,Chemnitz,0,1,,0152 09421404,,Maeusestuebchen@freenet.de,0,0
12.8985796656068,50.7832985931103,13,27,Stadt Chemnitz,"Alfred-Neubert-Straße 55, Hort Charles-Darwin-GS","Alfred-Neubert-Straße 55, Hort Charles-Darwin-GS",Alfred-Neubert-Straße,8105,55,09123,Chemnitz,1,0,,0371 4958400,,kita-neubertstr@stadt-chemnitz.de,0,1
12.9344095786926,50.8253783735082,14,28,Privater Träger,"Lutherstraße 18 ""mezzopiano"", Kindertagespflege mit musikalischem Profil","Lutherstraße 18 ""mezzopiano"", Kindertagespflege mit musikalischem Profil",Lutherstraße,24135,18,09126,Chemnitz,0,1,,0163 7255026,,musikkita@web.de,0,0
12.8248500470434,50.8233985554808,15,43,DRK Gemeinnützige Krankenhaus GmbH Sachsen,"Riedbachweg 2 ""Herbies Rabenburg""","Riedbachweg 2 ""Herbies Rabenburg""",Riedbachweg,12281,2,09117,Chemnitz,0,1,https://www.drk-khs.de,0371 80813915,,herbies.rabenburg@drk-khs.de,1,1
12.8253548259057,50.8124661395574,16,44,Stadtmission Chemnitz e. V.,"Hohensteiner Straße 14 ""Evangelischer Kindergarten am Wiesenbach""","Hohensteiner Straße 14 ""Evangelischer Kindergarten am Wiesenbach""",Hohensteiner Straße,11370,14,09117,Chemnitz,0,1,https://www.stadtmission-chemnitz.de/evangelischer-kindergarten-am-wiesenbach,0371 26226373,,kita-amwiesenbach@stadtmission-chemnitz.de,1,1
12.9654993346016,50.8332981499053,17,45,Stadt Chemnitz,Fürstenstraße 263/265,Fürstenstraße 263/265,Fürstenstraße,24115,263,09130,Chemnitz,0,1,,0371 85796675,,kita-fuerstenstr@stadt-chemnitz.de,0,1
12.8869700626166,50.8305585633887,18,46,SFZ Förderzentrum gGmbH,"Zinzendorfstraße 31 ""Kaßberg-Spechte""","Zinzendorfstraße 31 ""Kaßberg-Spechte""",Zinzendorfstraße,10520,31,09116,Chemnitz,0,1,http://www.SFZ-CHEMNITZ.de,0371 33560990,,cpetzold@sfz-chemnitz.de,1,1
12.9458175291908,50.8432232907575,19,47,"Kinder-, Jugend- u. Familienhilfe e. V. Chemnitz","Forststraße 26-30 Naturkinderhaus ""Esche""","Forststraße 26-30 Naturkinderhaus ""Esche""",Forststraße,23100,26-30,09130,Chemnitz,0,1,http://www.kjf-online.de,0371 49502390,,kita-eschestift@kjf-online.de,1,1
12.9112297688237,50.8715082428779,20,48,Privater Träger,"Dorfstraße 10 ""Tagesmutter Bille"", Kindertagespflege","Dorfstraße 10 ""Tagesmutter Bille"", Kindertagespflege",Dorfstraße,2190,10,09114,Chemnitz,0,1,,0173 4538057,,sybille@karl-marx-stadt.org,0,0
12.8791500634206,50.8292485744687,21,49,Stadt Chemnitz,Am Heim 15a,Am Heim 15a,Am Heim,10130,15a,09116,Chemnitz,0,1,,0371 66618337,,kita-amheim@stadt-chemnitz.de,1,1
12.9368895553286,50.8240683779757,22,50,Privater Träger,"Blücherstraße 10 ""Regenbogen"", Kindertagespflege","Blücherstraße 10 ""Regenbogen"", Kindertagespflege",Blücherstraße,4130,10,09126,Chemnitz,0,1,,0162 3236558,,annettgraderwitter@gmx.de,0,0
12.8864052872766,50.8622442868067,23,51,Stadt Chemnitz,"Brauhausstraße 16, Hort der Kooperationsschule Chemnitz","Brauhausstraße 16, Hort der Kooperationsschule Chemnitz",Wittgensdorfer Straße,13260,121,09114,Chemnitz,1,0,,0371 278688751,,kita-koopschule@stadt-chemnitz.de,0,1
12.9175795209652,50.839722712387,24,52,Stadt Chemnitz,"Schloßstraße 16 ""Bildungsinsel""","Schloßstraße 16 ""Bildungsinsel""",Schloßstraße,1550,16,09111,Chemnitz,0,1,,0371 24359427,,kita-schlossstr16@stadt-chemnitz.de,1,1
12.939885060951,50.8162983336974,25,53,"Kinder-, Jugend- u. Familienhilfe e. V. Chemnitz",Bernsdorfer Straße 120,Bernsdorfer Straße 120,Bernsdorfer Straße,21125,120,09126,Chemnitz,0,1,,0371 49502306,,Kita-B120@kjf-online.de,0,1
12.9366294826164,50.8322962549284,26,54,Stadt Chemnitz,"Jakobstraße 20, Hort der Annen-GS","Jakobstraße 20, Hort der Annen-GS",Jakobstraße,4235,20,09130,Chemnitz,1,0,,0371 267585250,,kita-jakobstr@stadt-chemnitz.de,1,1
12.9073581814611,50.8326224759368,27,55,Stadt Chemnitz,"Weststraße 19, Hort GS-Weststraße","Weststraße 19, Hort GS-Weststraße",Weststraße,21195,19,09112,Chemnitz,1,0,,0371 267469250,,kita-weststrGS@stadt-chemnitz.de,0,1
12.9625693644843,50.8310511815738,28,56,Privater Träger,"Clausewitzstraße 6 ""Abenteuerland"", Kindertagespflege","Clausewitzstraße 6 ""Abenteuerland"", Kindertagespflege",Clausewitzstraße,5195,6,09130,Chemnitz,0,1,,0175 6431895,,Sophia.bruehl@freenet.de,0,0
12.8942128969262,50.8127634464818,29,57,solaris Förderzentrum für Jugend und Umwelt gGmbH ,"Irkutsker Straße 15, Hort Valentina-Tereschkowa-GS, ""Kinderhort Kappelino""","Irkutsker Straße 15, Hort Valentina-Tereschkowa-GS, ""Kinderhort Kappelino""",Irkutsker Straße,9205,15,09119,Chemnitz,1,0,http://www.solaris-fzu.de,0176 16855052,,hort-kappelino@solaris-fzu.de,0,0
12.9057459213984,50.8355914982523,30,58,Stadt Chemnitz,"Henriettenstraße 21 ""Kinderhaus Pusteblume""","Henriettenstraße 21 ""Kinderhaus Pusteblume""",Henriettenstraße,21155,21,09112,Chemnitz,0,1,,0371 300571,,kita-henriettenstr@stadt-chemnitz.de,0,1
12.9097298667156,50.8243304360093,31,59,Stadt Chemnitz,"Katharinenstraße 1 ""Farbenfroh""","Katharinenstraße 1 ""Farbenfroh""",Katharinenstraße,9220,1,09119,Chemnitz,0,1,,0371 362270,,kita-katharinenstr@stadt-chemnitz.de,1,1
12.9530894728976,50.8417082004254,32,60,ADMEDINO gGmbH,"Planitzwiese 29 ""ADMEDINO""","Planitzwiese 29 ""ADMEDINO""",Planitzwiese,4362,29,09130,Chemnitz,0,1,http://www.admedino.de,0371 6664787,,andrea.regber@admedia-reha.de,1,1
12.9302096047528,50.8277733756842,33,61,Stadtmission Chemnitz e. V.,"Rembrandtstraße 13c ""Regenbogen""","Rembrandtstraße 13c ""Regenbogen""",Rembrandtstraße,1505,13c,09111,Chemnitz,0,1,https://www.stadtmission-chemnitz.de/rat-angebote/angebote-fuer-kinder-jugendliche-und-familien/angebote-fuer-kinder/evangelische-kindergaerten/evangelischer-kindergarten-regenbogen,0371 6004861,,kita@stadtmission-chemnitz.de,1,1
12.9248627275799,50.8304335098564,34,62,Stadt Chemnitz,"Wiesenstraße 1 ""Stupsnasen""","Wiesenstraße 1 ""Stupsnasen""",Wiesenstraße,1625,1,09111,Chemnitz,0,1,,0371 6761423,,kita-wiesenstr@stadt-chemnitz.de,0,1
12.8977796665415,50.7831985976721,35,63,Stadt Chemnitz,"Alfred-Neubert-Straße 57, Haus ""Kinderlachen""","Alfred-Neubert-Straße 57, Haus ""Kinderlachen""",Alfred-Neubert-Straße,8105,57,09123,Chemnitz,0,1,,0371 242534,,kita-neubertstr@stadt-chemnitz.de,0,1
12.9027749352388,50.8416175260943,36,64,Stadt Chemnitz,"Fritz-Matschke-Straße 23, Hort Obere Luisen-GS ""Luisenhort""","Fritz-Matschke-Straße 23, Hort Obere Luisen-GS ""Luisenhort""",Fritz-Matschke-Straße,10255,23,09113,Chemnitz,1,0,,0371 3380116,,kita-matschkestr@stadt-chemnitz.de,0,0
12.9248947451167,50.8434103457776,37,65,Stadt Chemnitz,"Brühl 59, Hort R.-Luxemburg-GS am Brühl","Brühl 59, Hort R.-Luxemburg-GS am Brühl",Brühl,1170,59,09111,Chemnitz,1,0,,0371 4445552,,kita-luxemburgGS@stadt-chemnitz.de,0,0
12.9126388249835,50.823925451318,38,66,Stadt Chemnitz,"Stollberger Straße 25 ""Chemnitzer Schulmodell""","Stollberger Straße 25 ""Chemnitzer Schulmodell""",Stollberger Straße,21185,25,09119,Chemnitz,1,0,,0371 3346487,,kita-schulmodell@stadt-chemnitz.de,1,1
12.9027329095151,50.8443495293642,39,67,Stadt Chemnitz,"Altendorfer Straße 25 ""Luisenspatzen""","Altendorfer Straße 25 ""Luisenspatzen""",Altendorfer Straße,21100,25,09113,Chemnitz,0,1,,0371 3304336,,kita-altendorferstr@stadt-chemnitz.de,0,1
12.9242276591238,50.825607470532,40,68,Stadt Chemnitz,"Fritz-Reuter-Straße 30 ""mittendrin""","Fritz-Reuter-Straße 30 ""mittendrin""",Fritz-Reuter-Straße,1255,30,09111,Chemnitz,0,1,,0371 6761097,,kita-fritzreuterstr@stadt-chemnitz.de,0,1
12.9053198238468,50.8467555027681,41,69,Stadt Chemnitz,"Küchwaldring 15 ""Zum Schneckenhaus""","Küchwaldring 15 ""Zum Schneckenhaus""",Küchwaldring,1390,15,09113,Chemnitz,0,1,,0371 372313,,kita-kuechwaldring@stadt-chemnitz.de,0,0
12.8831849111731,50.8048655438119,42,70,SSA - Sächsische Sozialakademie gGmbH,"Straße Usti nad Labem 299 ""Kinderhaus Bienenkorb""","Straße Usti nad Labem 299 ""Kinderhaus Bienenkorb""",Straße Usti nad Labem,9300,299,09119,Chemnitz,1,1,https://www.sozialakademie-sachsen.de/kindertagesstaetten/kinderhaus-bienenkorb/,0371 228118,,kita.bienenkorb@sozialakademie-sachsen.de,0,1
12.9594794918582,50.8696979266425,43,29,Privater Träger,"Max-Saupe-Straße 24 ""Ebersdorfer Flitzpiepen"", Kindertagespflege","Max-Saupe-Straße 24 ""Ebersdorfer Flitzpiepen"", Kindertagespflege",Max-Saupe-Straße,3290,24,09131,Chemnitz,0,1,https://www.ebersdorfer-flitzpiepen.de,0172 3726265,,ronny@ebersdorfer-flitzpiepen.de,0,0
12.9140797218823,50.8126984855631,44,30,Privater Träger,"Solbrigstraße 18 ""Land der kleinen Hände"", Kindertagespflege","Solbrigstraße 18 ""Land der kleinen Hände"", Kindertagespflege",Solbrigstraße,6375,18,09120,Chemnitz,0,1,,0171 9328599,,yjuhasz@gmx.de,0,0
12.9364895643838,50.8304083520993,45,31,Privater Träger,"Uferstraße 32, Kindertagespflege","Uferstraße 32, Kindertagespflege",Uferstraße,21190,32,09126,Chemnitz,0,1,,0172 7201262,,schubert-franziska@hotmail.de,0,0
12.9552793912523,50.8134984385082,46,32,Privater Träger,"Mansfelder Straße 23 ""Naturkinder"", Kindertagespflege","Mansfelder Straße 23 ""Naturkinder"", Kindertagespflege",Mansfelder Straße,6287,23,09126,Chemnitz,0,1,,0176 41843669,,martina_hamperl@web.de,0,0
12.8628198819766,50.7986676827527,47,33,Privater Träger,"Stelzendorfer Straße 267 ""Froschland"", Kindertagespflege","Stelzendorfer Straße 267 ""Froschland"", Kindertagespflege",Stelzendorfer Straße,11600,267,09116,Chemnitz,0,1,https://anjaschulzeas.wixsite.com/kindertagespflegefro,0172 6974871,,anjaschulze.as@googlemail.com,0,0
12.9438896943838,50.8518083329686,48,34,Privater Träger,"Margaretenstraße 34 ""Teddybande"", Kindertagespflege","Margaretenstraße 34 ""Teddybande"", Kindertagespflege",Margaretenstraße,3285,34,09131,Chemnitz,0,1,,0151 20246803,,kita-parsche.l@freenet.de,0,0
12.9384926334703,50.8448592314005,49,35,Privater Träger,"Thomas-Mann-Platz 5 ""Sallys Kindertagespflege"", Kindertagespflege","Thomas-Mann-Platz 5 ""Sallys Kindertagespflege"", Kindertagespflege",Thomas-Mann-Platz,3335,5,09130,Chemnitz,0,1,,0173 1671603,,sallyaner@freenet.de,0,0
12.9105927663039,50.8722472362407,50,36,Stadt Chemnitz,Schulberg 1,Schulberg 1,Schulberg,2350,1,09114,Chemnitz,0,1,,0371 45058960,,kita-schulberg@stadt-chemnitz.de,1,1
12.9301796050577,50.8273263693266,51,37,Stadt Chemnitz,Rembrandtstraße 13,Rembrandtstraße 13,Rembrandtstraße,1505,13,09111,Chemnitz,0,1,,0371 69579296,,kita-rembrandtstr@stadt-chemnitz.de,1,1
12.8850999155334,50.8052585273079,52,38,SSA - Sächsische Sozialakademie gGmbH,"Straße Usti nad Labem 279, Hort Dr.-Salvador-Allende-GS, ""Kinderhaus Bienenkorb""","Straße Usti nad Labem 279, Hort Dr.-Salvador-Allende-GS, ""Kinderhaus Bienenkorb""",Straße Usti nad Labem,9300,279,09119,Chemnitz,1,0,,0371 228118,,kita.bienenkorb@sozialakademie-sachsen.de,0,1
12.9304045828358,50.8185574413363,53,39,Studentenwerk Chemnitz Zwickau,"Reichenhainer Straße 33b ""Campulino""","Reichenhainer Straße 33b ""Campulino""",Reichenhainer Straße,1495,33b,09126,Chemnitz,0,1,http://www.kita-campulino.de,0371 5628150,,campulino@swcz.de,1,1
12.8928951973978,50.8295044173278,54,40,Stadt Chemnitz,"Michaelstraße 58 ""Wiesenwichtel""","Michaelstraße 58 ""Wiesenwichtel""",Michaelstraße,10380,58,09116,Chemnitz,0,1,,0371 40464476,,kita-michaelstr2@stadt-chemnitz.de,0,1
12.9351196476934,50.8335160541276,55,41,Caritasverband für Chemnitz und Umgebung e. V.,"Sonnenstraße 42, Caritaskindergarten ""Lebensbaum""","Sonnenstraße 42, Caritaskindergarten ""Lebensbaum""",Sonnenstraße,4410,42,09130,Chemnitz,0,1,www.caritas-chemnitz.de,0371 35574900,,lebensbaum@caritas-chemnitz.de,0,1
12.9344395493173,50.797758529174,56,42,gruuna Schule gGmbH,"Saydaer Straße 21, Hort der gruuna Schule","Saydaer Straße 21, Hort der gruuna Schule",Saydaer Straße,6350,21,09125,Chemnitz,1,0,https://www.gruuna.schule/,0371 33715680,,info@gruuna.schule,1,1
12.9297116893286,50.849579370555,57,1,Privater Träger,"Josephinenplatz 8 ""Entdeckerland"", Kindertagespflege","Josephinenplatz 8 ""Entdeckerland"", Kindertagespflege",Josephinenplatz,1340,8,09113,Chemnitz,0,1,,0174 5909703,,gudrun-entdeckerland@gmx.de,0,0
12.8583800122634,50.8306985263175,58,2,Privater Träger,"Weideweg 15 ""Hand in Hand"", Kindertagespflege","Weideweg 15 ""Hand in Hand"", Kindertagespflege",Weideweg,12345,15,09116,Chemnitz,0,1,,0152 33590407,,sindy.melzig@googlemail.com,0,0
12.9040819382662,50.8416805248614,59,3,Privater Träger,"Konradstraße 11 ""Susi's Zwergenland"", Kindertagespflege","Konradstraße 11 ""Susi's Zwergenland"", Kindertagespflege",Konradstraße,10331,11,09113,Chemnitz,0,1,http://www.susis-zwergenland.de,0173 9912177,,susis-zwergenland@web.de,1,0
12.8956718626753,50.8164934302726,60,4,Privater Träger,"Lützowstraße 60 ""KappelKrabbel"", Kindertagespflege","Lützowstraße 60 ""KappelKrabbel"", Kindertagespflege",Lützowstraße,9245,60,09119,Chemnitz,0,1,,0157 81784268,,Jacqueline.Zenker@gmx.de,0,0
12.8607840605622,50.8578634089382,61,5,Privater Träger,"Darwinweg 3 ""Zwergenstube"", Kindertagespflege","Darwinweg 3 ""Zwergenstube"", Kindertagespflege",Darwinweg,96170,3,09247,Chemnitz,0,1,,0162 7873299,,mail-an-zwergenstube@web.de,1,0
12.9378394392195,50.884938413956,62,6,Privater Träger,"Uhdestraße 52a ""Dschungelkids"", Kindertagespflege","Uhdestraße 52a ""Dschungelkids"", Kindertagespflege",Uhdestraße,2400,52a,09114,Chemnitz,0,1,https://www.kita-dschungelkids.de/,0176 32366084,,tinadmf@yahoo.de,0,0
12.8985079245687,50.8342783154232,63,7,Privater Träger,"Erich-Mühsam-Straße 2 ""Lotta & Finn"", Kindertagespflege","Erich-Mühsam-Straße 2 ""Lotta & Finn"", Kindertagespflege",Erich-Mühsam-Straße,10230,2,09112,Chemnitz,0,1,,0177 7977868,,lotta-finn@gmx.de,0,0
12.8607638789391,50.7987366782961,64,8,Privater Träger,"Krummer Weg 2 ""Bambino Lounge"", Kindertagespflege","Krummer Weg 2 ""Bambino Lounge"", Kindertagespflege",Krummer Weg,11415,2,09116,Chemnitz,0,1,,0162 2692425,,sina.veit@gmx.de,0,0
12.9115575628687,50.8120092775431,65,9,Privater Träger,"Annaberger Straße 108a ""Mäuseburg"", Kindertagespflege","Annaberger Straße 108a ""Mäuseburg"", Kindertagespflege",Annaberger Straße,21110,108a,09120,Chemnitz,0,1,,01520 1947114,,doreenluzyna@yahoo.de,0,0
12.8404310759952,50.8171276067856,66,10,Privater Träger,"Oberfrohnaer Straße 5 ""Villa Schmetterling"", Kindertagespflege","Oberfrohnaer Straße 5 ""Villa Schmetterling"", Kindertagespflege",Oberfrohnaer Straße,31100,5,09117,Chemnitz,0,1,,0172 9125837,,ricojunghans@web.de,0,0
12.9586994995969,50.8695159377592,67,11,Privater Träger,"Max-Saupe-Straße 23 ""Ebersdorfer Waldgeister"", Kindertagespflege","Max-Saupe-Straße 23 ""Ebersdorfer Waldgeister"", Kindertagespflege",Max-Saupe-Straße,3290,23,09131,Chemnitz,0,1,https://www.ebersdorfer-flitzpiepen.de,0371 4500653,,katja@ebersdorfer-waldgeister.de,0,0
12.9270766486679,50.7934545284884,68,12,Privater Träger,"Marienberger Straße 14 ""Kleine Möwe"", Kindertagespflege","Marienberger Straße 14 ""Kleine Möwe"", Kindertagespflege",Marienberger Straße,7210,14,09125,Chemnitz,0,1,,0157 57284142,,simone.ines.graessler@web.de,0,0
12.9433144314839,50.8381421183061,69,13,Privater Träger,"Beethovenstraße 58a ""Kleine Spatzen"", Kindertagespflege","Beethovenstraße 58a ""Kleine Spatzen"", Kindertagespflege",Beethovenstraße,4115,58a,09130,Chemnitz,0,1,,0176 60507646,,g.weiss1977@live.de,0,0
12.9399034720326,50.8158424334365,70,14,Stadt Chemnitz,"Augsburger Straße 32, Hort Heinrich-Heine-GS","Augsburger Straße 32, Hort Heinrich-Heine-GS",Augsburger Straße,6172,32,09126,Chemnitz,1,0,,0371 27868644,,kita-heineGS@stadt-chemnitz.de,0,1
12.9286916047645,50.8201694323276,71,152,"Kinder-, Jugend- u. Familienhilfe e. V. Chemnitz","Stadlerstraße 10 ""Bunte Kinderwelt""","Stadlerstraße 10 ""Bunte Kinderwelt""",Stadlerstraße,6390,10,09126,Chemnitz,0,1,http://www.kjf-online.de,0371 49502320,,kita-stadlerstrasse@kjf-online.de,0,0
12.8659229710927,50.8797752481243,72,153,"Kinder-, Jugend- u. Familienhilfe e. V. Chemnitz","Kirchweg (Wittgensdorf) 8 ""Haus Floh""","Kirchweg (Wittgensdorf) 8 ""Haus Floh""",Kirchweg (Wittgensdorf),97410,8,09228,Chemnitz,0,1,http://www.kjf-online.de,0371 49502370,,kita-flohzirkus@kjf-online.de,0,1
12.9457945152792,50.8301493146958,73,154,"Kinder-, Jugend- u. Familienhilfe e. V. Chemnitz","Bernhardstraße 77 ""Spielhaus Groß und Klein""","Bernhardstraße 77 ""Spielhaus Groß und Klein""",Bernhardstraße,4120,77,09126,Chemnitz,0,1,http://www.kjf-online.de,0371 49502330,,spielhaus@kjf-online.de,0,1
12.9457945152792,50.8301493146958,74,155,"Kinder-, Jugend- u. Familienhilfe e. V. Chemnitz","Bernhardstraße 77 ""Kindertreffpunkt""","Bernhardstraße 77 ""Kindertreffpunkt""",Bernhardstraße,4120,77,09126,Chemnitz,0,1,http://www.kjf-online.de,0371 49502335,,Kindertreffpunkt@kjf-online.de,0,1
12.9610623972702,50.8213803609345,75,156,"Kinder-, Jugend- u. Familienhilfe e. V. Chemnitz","Liddy-Ebersberger-Straße 2, Hort GS-Gablenz","Liddy-Ebersberger-Straße 2, Hort GS-Gablenz",Liddy-Ebersberger-Straße,5315,2,09127,Chemnitz,1,0,http://www.kjf-online.de,0371 49502385,,gablenzerhort@kjf-online.de,0,1
12.867835951917,50.8811152346839,76,157,"Kinder-, Jugend- u. Familienhilfe e. V. Chemnitz","Obere Hauptstraße 5 ""Haus Zirkus"", Hort Kirchner-GS","Obere Hauptstraße 5 ""Haus Zirkus"", Hort Kirchner-GS",Obere Hauptstraße,97480,5,09228,Chemnitz,1,0,http://www.kjf-online.de,037200 87626,,hortleitung-flohzirkus@kjf-online.de,0,0
12.9549803222135,50.7963295387355,77,158,Arbeiterwohlfahrt Soziale Dienste Chemnitz und Umg,"Am Hang 22 ""Kita Reichenhainer Wichtelberg""","Am Hang 22 ""Kita Reichenhainer Wichtelberg""",Am Hang,6135,22,09125,Chemnitz,0,1,http://www.awo-chemnitz.de,0371 38255244,,kita.reichenhain@awo-chemnitz.de,0,1
12.9331635899188,50.8255873717681,78,159,Stadt Chemnitz,"Lutherstraße 12 ""Regenbogenland""","Lutherstraße 12 ""Regenbogenland""",Lutherstraße,24135,12,09126,Chemnitz,0,1,,0371 515974,,kita-lutherstr@stadt-chemnitz.de,0,1
12.9333797576329,50.8838710429322,79,160,Stadt Chemnitz,Schmidt-Rottluff-Straße 50,Schmidt-Rottluff-Straße 50,Schmidt-Rottluff-Straße,2345,50,09114,Chemnitz,0,1,,0371 411223,,kita-rottluffstr@stadt-chemnitz.de,0,1
12.9532313244967,50.7978515260489,80,161,Arbeiterwohlfahrt Soziale Dienste Chemnitz und Umg,"Genossenschaftsweg 2, Hort GS-Reichenhain","Genossenschaftsweg 2, Hort GS-Reichenhain",Genossenschaftsweg,6235,2,09125,Chemnitz,1,0,http://www.awo-chemnitz.de,0371 4005451,,hort.reichenhain@awo-chemnitz.de,0,0
12.9394594823325,50.8152414379683,81,162,Stadt Chemnitz,"Augsburger Straße 36, Hort Heinrich-Heine-GS","Augsburger Straße 36, Hort Heinrich-Heine-GS",Augsburger Straße,6172,36,09126,Chemnitz,1,0,,0371 50220 / 52027551,,kita-heineGS@stadt-chemnitz.de,0,1
13.0324322805026,50.7986672891873,82,163,Stadt Chemnitz,"Ferdinandstraße 159 ""Waldameisen""","Ferdinandstraße 159 ""Waldameisen""",Ferdinandstraße,1245,159,09128,Chemnitz,0,1,,0371 772325,,kita-kleinolbersdorf@stadt-chemnitz.de,0,1
12.9503308242408,50.8548043926369,83,164,Stadt Chemnitz,"Ludwig-Richter-Straße 27 ""Sachsenspatzen""","Ludwig-Richter-Straße 27 ""Sachsenspatzen""",Ludwig-Richter-Straße,3280,27,09131,Chemnitz,0,1,,0371 414416,,kita-richterstr1@stadt-chemnitz.de,0,1
12.9503308242408,50.8548043926369,84,165,Stadt Chemnitz,"Ludwig-Richter-Straße 27 ""Filou""","Ludwig-Richter-Straße 27 ""Filou""",Ludwig-Richter-Straße,3280,27,09131,Chemnitz,0,1,,0371 412718,,kita-richterstr2@stadt-chemnitz.de,0,1
12.9488557548403,50.8527243563312,85,166,Christliches Jugenddorfwerk Deutschlands e. V.,"Ludwig-Richter-Straße 19, Hort L.-Richter-GS","Ludwig-Richter-Straße 19, Hort L.-Richter-GS",Ludwig-Richter-Straße,3280,19,09131,Chemnitz,1,0,http://www.cjd-sachsen.de,0371 411265,,hort-luri@cjd-sachsen.de,1,1
12.9628973613479,50.8319901656411,86,167,Stadt Chemnitz,"Ernst-Moritz-Arndt-Straße 4, Hort A.-S.-Makarenko-GS","Ernst-Moritz-Arndt-Straße 4, Hort A.-S.-Makarenko-GS",Ernst-Moritz-Arndt-Straß,5225,4,09130,Chemnitz,1,0,,0371 70089923,,kita-makarenkogs@stadt-chemnitz.de,1,1
12.9381246561189,50.8502983081868,87,168,Stadt Chemnitz,"Hilbersdorfer Straße 21 ""Pfiffikus"", Kinder- und Familienzentrum (KiFaZ)","Hilbersdorfer Straße 21 ""Pfiffikus"", Kinder- und Familienzentrum (KiFaZ)",Hilbersdorfer Straße,3235,21,09131,Chemnitz,0,1,,0371 412493,,kita-hilbersdorferstr@stadt-chemnitz.de,1,1
12.9892670190529,50.812919313987,88,169,Ev.-Luth. Christuskirchgemeinde Chemnitz,Kirchwinkel 4a,Kirchwinkel 4a,Kirchwinkel,5290,4a,09127,Chemnitz,0,1,https://www.ckgc.de/kita-eva-lu.html,0371 77419818,,adelsberger.kinderhaus@evlks.de,1,1
12.9397505938824,50.8412612210747,89,170,Stadt Chemnitz,"Reinhardtstraße 6, Hort G.-E.-Lessing-GS","Reinhardtstraße 6, Hort G.-E.-Lessing-GS",Reinhardtstraße,4380,6,09130,Chemnitz,1,0,,0371 40067889,,kita-lessingGS@stadt-chemnitz.de,0,0
12.8403210240461,50.8105336327711,90,171,Stadt Chemnitz,"Neue Straße 2 ""Lupinio""","Neue Straße 2 ""Lupinio""",Neue Straße,11475,2,09117,Chemnitz,0,1,,0371 851269,,kita-neuestr@stadt-chemnitz.de,0,1
12.8979878201941,50.8620003703332,91,172,Waldorfkindergartenverein Chemnitz e. V.,"Sandstraße 102 ""Morgensonne""","Sandstraße 102 ""Morgensonne""",Sandstraße,13235,102,09114,Chemnitz,1,1,http://www.waldorfkindergarten-chemnitz.de,0371 33407652,,Jana.Busse@waldorfschule-chemnitz.de,0,1
12.893707693712,50.7921375495913,92,173,Sportjugend Chemnitz im SSBC e. V.,"Wilhelm-Firl-Straße 2 ""Sportmäuse""","Wilhelm-Firl-Straße 2 ""Sportmäuse""",Wilhelm-Firl-Straße,8275,2,09122,Chemnitz,0,1,http://www.kita-sportmäuse.de,0371 224866,,info@kita-sportmaeuse.de,0,1
12.9097198564601,50.8237124441453,93,174,Waldorfkindergartenverein Chemnitz e. V.,Katharinenstraße 3,Katharinenstraße 3,Katharinenstraße,9220,3,09119,Chemnitz,0,1,http://www.waldorfkindergarten-chemnitz.de,0371 33407680,,Alice.Gugisch@waldorfschule-chemnitz.de,0,1
12.9371445511455,50.8318623508669,94,175,Stadt Chemnitz,"Tschaikowskistraße 9 ""Bunte Gärten"", Kinder- und Familienzentrum (KiFaZ)","Tschaikowskistraße 9 ""Bunte Gärten"", Kinder- und Familienzentrum (KiFaZ)",Tschaikowskistraße,4430,9,09130,Chemnitz,0,1,,0371 4012922,,kita-tschaikowskistr@stadt-chemnitz.de,0,1
12.9425375240301,50.8347732700064,95,176,Stadt Chemnitz,Pestalozzistraße 33,Pestalozzistraße 33,Pestalozzistraße,4340,33,09130,Chemnitz,0,1,,0371 4012429,,kita-pestalozzistr@stadt-chemnitz.de,0,1
12.9454765018616,50.8376382199454,96,177,Stadt Chemnitz,"Paul-Gerhardt-Straße 44, Hort Lernförder-GS ""J.-H.-Pestalozzi""","Paul-Gerhardt-Straße 44, Hort Lernförder-GS ""J.-H.-Pestalozzi""",Paul-Gerhardt-Straße,4335,44,09130,Chemnitz,1,0,,0371 4014892,,kita-gerhardtstr@stadt-chemnitz.de,0,1
12.9457794365416,50.8150254363242,97,178,Stadt Chemnitz,"Bernsdorfer Straße 147 ""Sausewind""","Bernsdorfer Straße 147 ""Sausewind""",Bernsdorfer Straße,21125,147,09126,Chemnitz,0,1,,0371 50517,,kita-bernsdorferstr@stadt-chemnitz.de,0,1
12.9132135638696,50.7618095763878,98,179,Arbeiterwohlfahrt Soziale Dienste Chemnitz und Umg,"Klaffenbacher Hauptstr. 85, Hort GS-Klaffenbach","Klaffenbacher Hauptstr. 85, Hort GS-Klaffenbach",Klaffenbacher Hauptstraß,47188,85,09123,Chemnitz,1,0,http://www.awo-chemnitz.de,0371 2677774,,kita.sonnenschein@awo-chemnitz.de,0,0
12.8962298221765,50.8507014941737,99,71,Stadt Chemnitz,"Wittgensdorfer Straße 2a ""Chemnitzer Eisknirpse""","Wittgensdorfer Straße 2a ""Chemnitzer Eisknirpse""",Wittgensdorfer Straße,13260,2a,09114,Chemnitz,1,1,,0371 3301073,,kita-eislauf@stadt-chemnitz.de,0,0
12.9274477594167,50.836945304007,100,72,Stadt Chemnitz,"Waisenstraße 3 ""Kastanienwichtel""","Waisenstraße 3 ""Kastanienwichtel""",Waisenstraße,1610,3,09111,Chemnitz,0,1,,0371 6762492,,kita-waisenstr@stadt-chemnitz.de,0,1
12.9014297293319,50.7960485036338,101,73,Stadt Chemnitz,"Robert-Siewert-Straße 68/70, Kinder- und Familienzentrum (KiFaZ)","Robert-Siewert-Straße 68/70, Kinder- und Familienzentrum (KiFaZ)",Robert-Siewert-Straße,8255,70,09122,Chemnitz,0,1,,0371 228615,,kita-siewertstr@stadt-chemnitz.de,0,1
12.8877994737677,50.7914218719355,102,74,Stadt Chemnitz,"Albert-Köhler-Straße 93, Hort A.-Einstein-GS","Albert-Köhler-Straße 93, Hort A.-Einstein-GS",Albert-Köhler-Straße,8100,93,09122,Chemnitz,1,0,,0371 227044,,kita-koehlerstr@stadt-chemnitz.de,1,1
12.9191958130148,50.8409533845009,103,75,Stadt Chemnitz,Schloßstraße 29,Schloßstraße 29,Schloßstraße,1550,29,09111,Chemnitz,0,1,,0371 411307,,kita-schlossstr@stadt-chemnitz.de,0,1
12.9184987558332,50.8464124128501,104,76,Stadt Chemnitz,"Schönherrstraße 2a ""Schlossteichzwerge""","Schönherrstraße 2a ""Schlossteichzwerge""",Schönherrstraße,1560,2a,09113,Chemnitz,0,1,,0371 4792247,,kita-schoenherrstr@stadt-chemnitz.de,0,1
12.8952778982815,50.8044944874785,105,77,Jugendberufshilfe Chemnitz gGmbH,"Friedrich-Hähnel-Straße 86, Hort GS Am Stadtpark","Friedrich-Hähnel-Straße 86, Hort GS Am Stadtpark",Friedrich-Hähnel-Straße,9145,86,09120,Chemnitz,1,0,http://www.hort-am-stadtpark.de,0371 4951540,,hort@jbhc.de,0,1
12.9134877784651,50.8469484522556,106,78,Stadt Chemnitz,"Küchwaldstraße 4, Hort Schloßschule-GS ""Rabennest""","Küchwaldstraße 4, Hort Schloßschule-GS ""Rabennest""",Küchwaldstraße,1395,4,09113,Chemnitz,1,0,,0371 9093130,,kita-schlossschule@stadt-chemnitz.de,1,0
12.9268526538894,50.8267794324752,107,79,Arbeiterwohlfahrt Soziale Dienste Chemnitz und Umg,"Clara-Zetkin-Straße 1 ""Kinderparadies""","Clara-Zetkin-Straße 1 ""Kinderparadies""",Clara-Zetkin-Straße,1185,1,09111,Chemnitz,0,1,http://www.awo-chemnitz.de,0371 6956290,,kita.kinderparadies@awo-chemnitz.de,0,1
12.9063006383063,50.7853945502974,108,80,Arbeiterwohlfahrt Soziale Dienste Chemnitz und Umg,"Am Harthwald 128/130 ""AWO Naturkinderhaus Spatzennest""","Am Harthwald 128/130 ""AWO Naturkinderhaus Spatzennest""",Am Harthwald,8110,128,09123,Chemnitz,1,1,http://www.awo-chemnitz.de,0371 242380,,naturkinderhaus@awo-chemnitz.de,0,1
12.8940839082913,50.8069704770251,109,81,Arbeiterwohlfahrt Soziale Dienste Chemnitz und Umg,"Friedrich-Hähnel-Straße 7 ""Schmetterling""","Friedrich-Hähnel-Straße 7 ""Schmetterling""",Friedrich-Hähnel-Straße,9145,7,09120,Chemnitz,0,1,http://www.awo-chemnitz.de,0371 228030,,kinderhaus.schmetterling@awo-chemnitz.de,0,1
12.8866998294061,50.7986505534508,110,82,Montessori Schulen Chemnitz und Thalheim GmbH,Morgenleite 15,Morgenleite 15,Morgenleite,8245,15,09122,Chemnitz,0,1,,0371 223921,,info@kiga-morgenleite.de,0,0
12.9110928650426,50.8420914787114,111,83,Ev.-Luth. St. Petri Schloßkirchgemeinde,"Abteiweg 2 ""Apfelbäumchen""","Abteiweg 2 ""Apfelbäumchen""",Abteiweg,1050,2,09113,Chemnitz,0,1,https://sps.kirchechemnitz.de/kindergarten-kontakt.html,0371 3378570,,Kita.Chemnitz-StPetriSchloss@evlks.de,0,1
12.9061705064609,50.7586316021293,112,84,Arbeiterwohlfahrt Soziale Dienste Chemnitz und Umg,"Rödelwaldstraße 20a ""Sonnenschein""","Rödelwaldstraße 20a ""Sonnenschein""",Rödelwaldstraße,47194,20a,09123,Chemnitz,0,1,http://www.awo-chemnitz.de,0371 2607096,,kita.sonnenschein@awo-chemnitz.de,0,0
12.8884537007862,50.7865876131216,113,85,Berliner Institut für Kleinkindpädagogik und famil,"Fritz-Fritzsche-Straße 57 ""Kneipp Kita Villa Tausendfuß""","Fritz-Fritzsche-Straße 57 ""Kneipp Kita Villa Tausendfuß""",Fritz-Fritzsche-Straße,8175,57,09123,Chemnitz,0,1,,0371 2600123,,kita-tausendfuss@bik-ev.de,0,1
12.9512334230155,50.813862442097,114,86,Berliner Institut für Kleinkindpädagogik und famil,"Pappelstraße 14 ""Entdeckerland""","Pappelstraße 14 ""Entdeckerland""",Pappelstraße,6298,14,09126,Chemnitz,0,1,,0371 55006,,kita-pappelstrasse@bik-ev.de,0,1
12.9045859332615,50.8426035256135,115,87,Berliner Institut für Kleinkindpädagogik und famil,"Ludwigstraße 12 ""Spielhaus""","Ludwigstraße 12 ""Spielhaus""",Ludwigstraße,21165,12,09113,Chemnitz,0,1,http://www.bik-ev.de,0371 3302349,,Kita-spielhaus@bik-ev.de,0,1
12.8441210548507,50.8201075898278,116,88,Stadt Chemnitz,"Kaufmannstraße 12 ""Villa Wackelzahn""","Kaufmannstraße 12 ""Villa Wackelzahn""",Kaufmannstraße,11385,12,09117,Chemnitz,0,1,,0371 853407,,kita-kaufmannstr12@stadt-chemnitz.de,0,1
12.8849350776752,50.8307075779171,117,89,Stadt Chemnitz,"Harthweg 2 ""Sonnenhaus""","Harthweg 2 ""Sonnenhaus""",Harthweg,30115,2,09116,Chemnitz,1,1,https://kita-sonnenhaus-chemnitz.de,0371 300903,,kita-harthweg@stadt-chemnitz.de,0,1
12.9080298919999,50.8292534516106,118,90,Stadt Chemnitz,"Heinrich-Beck-Straße 2, Hort Gebrüder-Grimm-GS","Heinrich-Beck-Straße 2, Hort Gebrüder-Grimm-GS",Heinrich-Beck-Straße,10305,2,09112,Chemnitz,1,0,,0371 304172,,kita-grimmgs@stadt-chemnitz.de,0,1
12.8967839847293,50.8285774939341,119,91,Stadt Chemnitz,"Hoffmannstraße 35, Hort Pablo-Neruda-GS","Hoffmannstraße 35, Hort Pablo-Neruda-GS",Hoffmannstraße,10285,35,09112,Chemnitz,1,0,,0371 35509735,,kita-nerudags@stadt-chemnitz.de,1,1
12.9068299142832,50.8354464952715,120,92,Stadt Chemnitz,"Reichsstraße 45, Hort Lernförder-GS ""F.-Fröbel""","Reichsstraße 45, Hort Lernförder-GS ""F.-Fröbel""",Reichsstraße,21175,45,09112,Chemnitz,1,0,,0371 3816517,,kita-froebelFS@stadt-chemnitz.de,0,1
12.8342840270367,50.8272825363091,121,93,Stadt Chemnitz,"Trützschlerstraße 10, Hort GS-Rabenstein","Trützschlerstraße 10, Hort GS-Rabenstein",Trützschlerstraße,12325,10,09117,Chemnitz,1,0,,0371 8080584,,kita-rabensteinGS@stadt-chemnitz.de,1,1
12.8936738477995,50.8181474181538,122,94,Montessori-Verein Chemnitz e. V.,"Platnerstraße 10 ""Montessori-Kinderhaus""","Platnerstraße 10 ""Montessori-Kinderhaus""",Platnerstraße,9275,10,09119,Chemnitz,0,1,,0371 900759,,anschuetz@montessoriverein-chemnitz.de,0,0
12.9706224663037,50.8764529150207,123,95,Arbeiterwohlfahrt Soziale Dienste Chemnitz und Umg,"Lichtenauer Straße 45, Hort GS-Ebersdorf","Lichtenauer Straße 45, Hort GS-Ebersdorf",Lichtenauer Straße,3270,45,09131,Chemnitz,1,0,http://www.awo-chemnitz.de,0371 414051,,kita.tausendfuessler@awo-chemnitz.de,0,1
12.9587875326053,50.8672660455962,124,96,Arbeiterwohlfahrt Soziale Dienste Chemnitz und Umg,"Herweghstraße 7 ""Tausendfüßler""","Herweghstraße 7 ""Tausendfüßler""",Herweghstraße,3230,7,09131,Chemnitz,0,1,http://www.awo-chemnitz.de,0371 411778,,kita.tausendfuessler@awo-chemnitz.de,0,1
12.8443260610462,50.8196295935183,125,97,Stadt Chemnitz,"Kaufmannstraße 9, Hort GS-Siegmar","Kaufmannstraße 9, Hort GS-Siegmar",Kaufmannstraße,11385,9,09117,Chemnitz,1,0,,0371 8420416,,kita-siegmarGS@stadt-chemnitz.de,0,1
12.8263879881792,50.8132436390972,126,98,Stadt Chemnitz,"Heinrich-Bretschneider-Straße 2, Hort GS-Reichenbrand ""Hort Pfiffikus""","Heinrich-Bretschneider-Straße 2, Hort GS-Reichenbrand ""Hort Pfiffikus""",Heinrich-Bretschneider-S,11355,2,09117,Chemnitz,1,0,,0371 851353,,kita-bretschneiderstr@stadt-chemnitz.de,0,1
12.8742357063145,50.7822416360322,127,99,Stadt Chemnitz,"Walter-Ranft-Straße 72 ""Im Hutholz""","Walter-Ranft-Straße 72 ""Im Hutholz""",Walter-Ranft-Straße,8265,72,09123,Chemnitz,0,1,,0371 26749888,,kita-ranftstr@stadt-chemnitz.de,1,1
12.8733550044903,50.8229815611671,128,100,F+U Sachsen gGmbH,"Guerickestraße 38 ""Schönauer Weltentdecker"", Hort GS-Schönau","Guerickestraße 38 ""Schönauer Weltentdecker"", Hort GS-Schönau",Guerickestraße,30110,38,09116,Chemnitz,1,0,,0371 8448840,,hortschoenau@fuu-sachsen.de,0,1
12.8791210684791,50.8353665072314,129,101,Stadt Chemnitz,"Rudolf-Krahl-Straße 10 ""Waldhäuschen""","Rudolf-Krahl-Straße 10 ""Waldhäuschen""",Rudolf-Krahl-Straße,10425,10,09116,Chemnitz,0,1,,0371 300637,,kita-krahlstr@stadt-chemnitz.de,0,1
12.8928951973978,50.8295044173278,130,102,Stadt Chemnitz,"Michaelstraße 58 ""WELT-Entdecker""","Michaelstraße 58 ""WELT-Entdecker""",Michaelstraße,10380,58,09116,Chemnitz,0,1,,0371 302064,,kita-michaelstr@stadt-chemnitz.de,0,1
12.9098508849185,50.833065471312,131,103,Stadt Chemnitz,"Weststraße 11 ""Kaßberg-Zwerge""","Weststraße 11 ""Kaßberg-Zwerge""",Weststraße,21195,11,09112,Chemnitz,0,1,,0371 302874,,kita-weststr@stadt-chemnitz.de,0,1
12.8814930831285,50.8369995202307,132,104,Stadt Chemnitz,"Albert-Schweitzer-Straße 71 ""Kleeblatt""","Albert-Schweitzer-Straße 71 ""Kleeblatt""",Albert-Schweitzer-Straße,10115,71,09116,Chemnitz,0,1,,0371 302572,,kita-schweitzerstr@stadt-chemnitz.de,0,1
12.8300950207674,50.8169216044559,133,105,Stadt Chemnitz,"Nevoigtstraße 42 ""Groß & Klein""","Nevoigtstraße 42 ""Groß & Klein""",Nevoigtstraße,11490,42,09117,Chemnitz,0,1,http://www.foerderverein-nevoigtstrasse.de,0371 851601,,kita-nevoigtstr@stadt-chemnitz.de,0,1
12.9131398490916,50.8294604627065,134,106,KINDERVEREINIGUNG Chemnitz e. V.,"Hohe Straße 6b ""Sonnenschein""","Hohe Straße 6b ""Sonnenschein""",Hohe Straße,1315,6b,09112,Chemnitz,0,1,,0371 304769,,sonnenschein@kindervereinigung-chemnitz.de,0,0
12.8942128969262,50.8127634464818,135,107,solaris Förderzentrum für Jugend und Umwelt gGmbH ,"Irkutsker Straße 15 ""Kinderhaus Kappelino"", Kinder- und Familienzentrum (KiFaZ)","Irkutsker Straße 15 ""Kinderhaus Kappelino"", Kinder- und Familienzentrum (KiFaZ)",Irkutsker Straße,9205,15,09119,Chemnitz,0,1,http://www.solaris-fzu.de,0371 3685880,,kita-kappelino@solaris-fzu.de,0,1
12.9088529004361,50.8363604879597,136,108,Ev.-Luth. Kirchgemeinde St. Jakobi - Kreuz,"Henriettenstraße 10 ""Spatzennest""","Henriettenstraße 10 ""Spatzennest""",Henriettenstraße,21155,10,09112,Chemnitz,0,1,,0371 302585,,kiga.chemnitz-spatzennest@evlks.de,0,1
12.8852420899031,50.8324065691673,137,109,Ev.-Luth. Kirchgemeinde St. Matthäus,Zinzendorfstraße 14,Zinzendorfstraße 14,Zinzendorfstraße,10520,14,09116,Chemnitz,0,1,https://matthaeus.kirchechemnitz.de,0371 302856,,Kiga.chemnitz-altendorf@evlks.de,0,0
12.8872699180144,50.807792506799,138,110,KINDERVEREINIGUNG Chemnitz e. V.,"Straße Usti nad Labem 119 ""Glückskäfer"", Kinder- und Familienzentrum (KiFaZ)","Straße Usti nad Labem 119 ""Glückskäfer"", Kinder- und Familienzentrum (KiFaZ)",Straße Usti nad Labem,9300,119,09119,Chemnitz,1,1,http://www.kindervereinigung-chemnitz.de,0371 227148,,glueckskaefer@kindervereinigung-chemnitz.de,0,0
12.9335746107811,50.8334203716095,139,111,Arbeiterwohlfahrt Soziale Dienste Chemnitz und Umg,"Paul-Arnold-Straße 1 ""AWO Kinder- und Familienzentrum Sonnenwelt"", (KiFaZ)","Paul-Arnold-Straße 1 ""AWO Kinder- und Familienzentrum Sonnenwelt"", (KiFaZ)",Paul-Arnold-Straße,4330,1,09130,Chemnitz,1,1,http://www.awo-chemnitz.de,0371 4014164,,kita.sonnenwelt@awo-chemnitz.de,0,1
12.7879011651499,50.8128635957143,140,112,Arbeiterwohlfahrt Soziale Dienste Chemnitz und Umg,"August-Bebel-Straße 7, Hort GS Grüna ""Baumgarten""","August-Bebel-Straße 7, Hort GS Grüna ""Baumgarten""",August-Bebel-Straße (Grü,95160,7,09224,Chemnitz,1,0,http://www.awo-chemnitz.de,0371 858149,,hort.gruena@awo-chemnitz.de,0,0
12.8033971207043,50.799381803077,141,113,Arbeiterwohlfahrt Soziale Dienste Chemnitz und Umg,"Hofer Straße (Mb.) 17 ""Mittelbacher Zwergenland""","Hofer Straße (Mb.) 17 ""Mittelbacher Zwergenland""",Hofer Straße (Mittelbach,87230,17,09224,Chemnitz,0,1,http://www.awo-chemnitz.de,0371 850373,,kita.zwergenland@awo-chemnitz.de,0,0
12.798802152201,50.7992018240887,142,114,Arbeiterwohlfahrt Soziale Dienste Chemnitz und Umg,"Hofer Straße (Mb.) 35, Hort GS-Mittelbach","Hofer Straße (Mb.) 35, Hort GS-Mittelbach",Hofer Straße (Mittelbach,87230,35,09224,Chemnitz,1,0,http://www.awo-chemnitz.de,0371 8449884,,hort.mittelbach@awo-chemnitz.de,0,0
12.7788612273973,50.8125506552732,143,115,Arbeiterwohlfahrt Soziale Dienste Chemnitz und Umg,"Forststraße (Grüna) 8 ""Kinderhaus Baumgarten""","Forststraße (Grüna) 8 ""Kinderhaus Baumgarten""",Forststraße (Grüna),95320,8,09224,Chemnitz,0,1,http://www.awo-chemnitz.de,0371 8000305,,kinderhaus.baumgarten@awo-chemnitz.de,0,1
12.8341450459445,50.8605893504301,144,116,Röhrsdorfer Kinderwelt e. V.,Rathausplatz (Röhrsdorf) 6,Rathausplatz (Röhrsdorf) 6,Rathausplatz (Röhrsdorf),96400,6,09247,Chemnitz,0,1,http://www.röhrsdorfer-kinderwelt.de,03722 500756,,Roehrsdorfer.Kinderwelt@t-online.de,1,0
12.8977178054171,50.8658883284992,145,117,Stadt Chemnitz,"Auerswalder Straße 119 ""Rappelkiste""","Auerswalder Straße 119 ""Rappelkiste""",Auerswalder Straße,13135,119,09114,Chemnitz,0,1,,0371 3304229,,kita-auerswalderstr@stadt-chemnitz.de,0,1
12.8843729350344,50.822416487577,146,118,Stadt Chemnitz,"Am Feldschlößchen 18b ""Regenbogen""","Am Feldschlößchen 18b ""Regenbogen""",Am Feldschlößchen,10125,18b,09116,Chemnitz,0,1,,0371 365021,,kita-feldschloesschen@stadt-chemnitz.de,1,1
12.8633648693005,50.7976146862325,147,119,Stadt Chemnitz,"Neukirchner Straße 7a ""Zwergenhaus""","Neukirchner Straße 7a ""Zwergenhaus""",Neukirchner Straße,11480,7a,09116,Chemnitz,0,1,,0371 2804238,,kita-neukirchnerstr@stadt-chemnitz.de,1,1
12.9149377442878,50.8554613696961,148,120,Stadt Chemnitz,"Draisdorfer Straße 15 ""Blumenwiese""","Draisdorfer Straße 15 ""Blumenwiese""",Draisdorfer Straße,2195,15,09114,Chemnitz,0,1,,0371 410404,,kita-draisdorferstr@stadt-chemnitz.de,0,1
12.9110427729205,50.8726262324853,149,121,Stadt Chemnitz,"Schulberg 3, Hort GS-Glösa","Schulberg 3, Hort GS-Glösa",Schulberg,2350,3,09114,Chemnitz,1,0,,0371 45904416,,kita-gloesaGS@stadt-chemnitz.de,1,1
12.8864599642714,50.8636283735536,150,122,Stadt Chemnitz,"Wittgensdorfer Straße 121a, Hort GS-Borna","Wittgensdorfer Straße 121a, Hort GS-Borna",Wittgensdorfer Straße,13260,121a,09114,Chemnitz,1,0,,0371 33832940,,kita-bornaGS@stadt-chemnitz.de,1,0
13.0207331590798,50.8327392756258,151,123,Stadt Chemnitz,"An der Kirche 2, Hort GS-Euba","An der Kirche 2, Hort GS-Euba",An der Kirche,16110,2,09128,Chemnitz,1,0,,03726 7892990,,kita-euba@stadt-chemnitz.de,0,1
12.9881300107059,50.8130363225455,152,124,Stadt Chemnitz,"Adelsbergstraße 296, Hort GS-Adelsberg","Adelsbergstraße 296, Hort GS-Adelsberg",Adelsbergstraße,24100,296,09127,Chemnitz,1,0,,0371 7710249,,kita-adelsbergGS@stadt-chemnitz.de,0,1
13.0231011906562,50.833397271703,153,125,Stadt Chemnitz,Drosselsteig 4,Drosselsteig 4,Drosselsteig,16141,4,09128,Chemnitz,0,1,,03726 7892990,,kita-euba@stadt-chemnitz.de,0,1
12.9364615633727,50.8291523478849,154,126,Stadt Chemnitz,"Rudolfstraße 12, Hort Rudolf-GS","Rudolfstraße 12, Hort Rudolf-GS",Rudolfstraße,4390,12,09126,Chemnitz,1,0,,0371 2786888216,,kita-rudolfGS@stadt-chemnitz.de,0,0
12.9650443290572,50.8210663465993,155,127,Stadt Chemnitz,"Carl-von-Ossietzky-Straße 190 ""Rasselbande""","Carl-von-Ossietzky-Straße 190 ""Rasselbande""",Carl-von-Ossietzky-Straß,24110,190,09127,Chemnitz,0,1,,0371 741885,,kita-ossietzkystr1@stadt-chemnitz.de,0,1
12.9315715605201,50.8182544451819,156,128,Stadt Chemnitz,"Reichenhainer Straße 33a ""Krabbelkäfer""","Reichenhainer Straße 33a ""Krabbelkäfer""",Reichenhainer Straße,1495,33a,09126,Chemnitz,0,1,,0371 50279,,kita-reichenhainerstr@stadt-chemnitz.de,0,1
12.91424566034,50.7946005165046,157,129,Stadt Chemnitz,"Schulstraße 35 ""Burg Farbenklecks""","Schulstraße 35 ""Burg Farbenklecks""",Schulstraße,26120,35,09125,Chemnitz,0,1,,0371 513380,,kita-schulstr@stadt-chemnitz.de,0,1
12.9311806081718,50.7939905335221,158,130,Stadtmission Chemnitz e. V.,"Erfenschlager Straße 47 ""Arche Noah""","Erfenschlager Straße 47 ""Arche Noah""",Erfenschlager Straße,26100,47,09125,Chemnitz,0,1,http://www.stadtmission-chemnitz.de,0371 511121,,kiga.archenoah@stadtmission-chemnitz.de,0,1
12.9380725421264,50.8234423814952,159,131,Stadt Chemnitz,"Blücherstraße 25 ""Rüsselchen""","Blücherstraße 25 ""Rüsselchen""",Blücherstraße,4130,25,09126,Chemnitz,0,1,,0371 514860,,kita-bluecherstr@stadt-chemnitz.de,0,1
12.9153506931403,50.8106855017587,160,132,Stadt Chemnitz,"Comeniusstraße 3a ""Comelino""","Comeniusstraße 3a ""Comelino""",Comeniusstraße,6185,3a,09120,Chemnitz,0,1,,0371 514114,,kita-comeniusstr3@stadt-chemnitz.de,0,1
12.9311565673596,50.8179834464874,161,133,"Gemeinnütziger Kindergartenverein ""Zwergenland"" e.","Reichenhainer Straße 33a ""Zwergenland""","Reichenhainer Straße 33a ""Zwergenland""",Reichenhainer Straße,1495,33a,09126,Chemnitz,0,1,,0371 5611821,,info@zwergenland-chemnitz.de,0,1
12.9344795780692,50.8271413642756,162,134,Arbeiterwohlfahrt Soziale Dienste Chemnitz und Umg,"Bernhardstraße 4 ""Pampel-Muse"", Musischer Kindergarten und Kinder- und Familienzentrum (KiFaZ)","Bernhardstraße 4 ""Pampel-Muse"", Musischer Kindergarten und Kinder- und Familienzentrum (KiFaZ)",Bernhardstraße,4120,4,09126,Chemnitz,0,1,http://www.awo-chemnitz.de,0371 50390,,kiga.pampel-muse@awo-chemnitz.de,0,1
12.938637581389,50.8372312352753,163,135,Freier ev. Schulverein Chemnitz e. V.,"Tschaikowskistraße 49 ""Hort im Evangelischen Schulzentrum Chemnitz""","Tschaikowskistraße 49 ""Hort im Evangelischen Schulzentrum Chemnitz""",Tschaikowskistraße,4430,49,09130,Chemnitz,1,0,,0371 4331971,,hort@eszc.de,0,1
13.0191282692872,50.8009352326783,164,136,Stadt Chemnitz,Ferdinandstraße 97,Ferdinandstraße 97,Ferdinandstraße,1245,97,09128,Chemnitz,1,0,,0371 27802798,,kita-kleinolbersdorfGS@stadt-chemnitz.de,0,0
12.9716304207523,50.7779226110628,165,137,Stadt Chemnitz,"Einsiedler Hauptstraße 25 ""Kinderhaus Sonnenschein""","Einsiedler Hauptstraße 25 ""Kinderhaus Sonnenschein""",Einsiedler Hauptstraße,46163,25,09123,Chemnitz,0,1,,037209 2823,,kita-einsiedel@stadt-chemnitz.de,0,1
12.9650443290572,50.8210663465993,166,138,Stadt Chemnitz,"Carl-von-Ossietzky-Straße 190 ""Sonnenblume""","Carl-von-Ossietzky-Straße 190 ""Sonnenblume""",Carl-von-Ossietzky-Straß,24110,190,09127,Chemnitz,0,1,,0371 724065,,kita-ossietzkystr2@stadt-chemnitz.de,0,1
12.9248986743597,50.7761555323403,167,139,Stadt Chemnitz,"Stöcklstraße 4, Hort GS-Harthau","Stöcklstraße 4, Hort GS-Harthau",Stöcklstraße,7270,4,09125,Chemnitz,1,0,,0371 52039113,,kita-harthauGS@stadt-chemnitz.de,0,1
12.9141337190051,50.8107174982543,168,140,Stadt Chemnitz,"Comeniusstraße 1, Hort J.-A.-Comenius-GS","Comeniusstraße 1, Hort J.-A.-Comenius-GS",Comeniusstraße,6185,1,09120,Chemnitz,1,0,,0371 4959577,,kita-comeniusGS@stadt-chemnitz.de,1,1
12.9403549762768,50.8411890184918,169,141,Stadt Chemnitz,"Schulstraße 2, Hort GS Altchemnitz - Förderschulzentrum mit dem Förderschwerpunkt Lernen","Schulstraße 2, Hort GS Altchemnitz - Förderschulzentrum mit dem Förderschwerpunkt Lernen",Philippstraße,4355,20,09130,Chemnitz,1,0,,0371 49529733,,kita-altchemnitzFS@stadt-chemnitz.de,0,1
12.9645143787249,50.8226683308088,170,142,"Kinder-, Jugend- u. Familienhilfe e. V. Chemnitz","Carl-von-Ossietzky-Straße 171, Hort GS-Gablenz","Carl-von-Ossietzky-Straße 171, Hort GS-Gablenz",Carl-von-Ossietzky-Straß,24110,171,09127,Chemnitz,1,0,http://www.kjf-online.de,0371 7500816,,gablenzerhort@kjf-online.de,0,1
12.9569334169489,50.8280972834084,171,143,Volkssolidarität Stadtverband Chemnitz e. V.,"Ernst-Enge-Straße 4 ""Montessori-Kinderhaus""","Ernst-Enge-Straße 4 ""Montessori-Kinderhaus""",Ernst-Enge-Straße,5220,4,09127,Chemnitz,0,1,,0371 71105,,erstes-montessori-kinderhaus@volkssolidaritaet.de,0,0
12.8907149047692,50.8105744615268,172,144,"Kinder-, Jugend- u. Familienhilfe e. V. Chemnitz","Straße Usti nad Labem 49 ""Erstes Chemnitzer Kindergartenmodell""","Straße Usti nad Labem 49 ""Erstes Chemnitzer Kindergartenmodell""",Straße Usti nad Labem,9300,49,09119,Chemnitz,0,1,http://www.kjf-online.de,0371 49502345,,usti49@kjf-online.de,0,1
12.8879410186921,50.8436685234401,173,145,"Kinder-, Jugend- u. Familienhilfe e. V. Chemnitz","Flemmingstraße 1a ""Flemmi""","Flemmingstraße 1a ""Flemmi""",Flemmingstraße,10245,1a,09116,Chemnitz,0,1,http://www.kjf-online.de,0371 49502360,,kita-flemmingstrasse@kjf-online.de,0,1
12.8381690158075,50.8308815156269,174,146,"Kinder-, Jugend- u. Familienhilfe e. V. Chemnitz","Kieselhausenstraße 6 ""Rabennest""","Kieselhausenstraße 6 ""Rabennest""",Kieselhausenstraße,12230,6,09117,Chemnitz,0,1,http://www.kjf-online.de,0371 49502350,,kita-rabennest@kjf-online.de,0,1
12.9126217491352,50.8483354563922,175,147,Volkssolidarität Stadtverband Chemnitz e. V.,"Küchwaldring 22 ""Glückskäfer""","Küchwaldring 22 ""Glückskäfer""",Küchwaldring,1390,22,09113,Chemnitz,0,1,,0371 3304877,,kita-kuechwaldring@volkssolidaritaet.de,0,0
12.891000909493,50.8103184621049,176,148,"Kinder-, Jugend- u. Familienhilfe e. V. Chemnitz","Straße Usti nad Labem 47 ""Abenteuerland""","Straße Usti nad Labem 47 ""Abenteuerland""",Straße Usti nad Labem,9300,47,09119,Chemnitz,0,1,http://www.kjf-online.de,0371 49502340,,usti47@kjf-online.de,0,1
12.9572124587945,50.8364542183149,177,149,"Kinder-, Jugend- u. Familienhilfe e. V. Chemnitz","Yorckstraße 48 ""Zeisigwaldfüchse"", Kinder- und Familienzentrum (KiFaZ)","Yorckstraße 48 ""Zeisigwaldfüchse"", Kinder- und Familienzentrum (KiFaZ)",Yorckstraße,24150,48,09130,Chemnitz,0,1,http://www.kjf-online.de,0371 49502310,,yorckstrasse@kjf-online.de,0,1
12.9428865453392,50.8392492157698,178,150,Volkssolidarität Stadtverband Chemnitz e. V.,"Sebastian-Bach-Straße 21 ""Sonnenbergstrolche""","Sebastian-Bach-Straße 21 ""Sonnenbergstrolche""",Sebastian-Bach-Straße,4405,21,09130,Chemnitz,1,1,,0371 4011600,,kontakt@kindertagesstaette-sonnenbergstrolche.de,0,1
12.8822347297802,50.7910655940019,179,151,Volkssolidarität Stadtverband Chemnitz e. V.,"Max-Türpe-Straße 40/42 ""Montessori-Kinderhaus Pfiffikus""","Max-Türpe-Straße 40/42 ""Montessori-Kinderhaus Pfiffikus""",Max-Türpe-Straße,8235,40,09122,Chemnitz,1,1,https://vs-chemnitz.de/dienstleistungen/kinderbetreuung/montessori-kinderhaus-pfiffikus,0371 229148,,kontakt@montessori-kinderhaus-pfiffikus.de,0,1
12.8355900565974,50.8625573417945,180,180,Röhrsdorfer Kinderwelt e. V.,"Beethovenweg 44, Hort GS-Röhrsdorf","Beethovenweg 44, Hort GS-Röhrsdorf",Beethovenweg,96150,44,09247,Chemnitz,1,1,http://www.röhrsdorfer-kinderwelt.de,03722 6980636,,Roehrsdorfer.Kinderwelt@t-online.de,0,0
12.9354335718583,50.8332323677443,181,181,Stadt Chemnitz,"Martinstraße 17 ""Offene Kindertagesstätte""","Martinstraße 17 ""Offene Kindertagesstätte""",Martinstraße,4305,17,09130,Chemnitz,0,1,,0371 4010435,,kita-martinstr@stadt-chemnitz.de,0,1
12.9593404089906,50.8238783328862,182,182,Montessori-Verein Chemnitz e. V.,"Ernst-Enge-Straße 21, Hort Montessori-Schule","Ernst-Enge-Straße 21, Hort Montessori-Schule",Ernst-Enge-Straße,5220,21,09127,Chemnitz,1,0,,0371 71589,,grundschule@montessoriverein-chemnitz.de,0,1
12.8843700590137,50.8414785259046,183,183,SFZ Förderzentrum gGmbH,"Louis-Braille-Straße 35 ""Buntspechte""","Louis-Braille-Straße 35 ""Buntspechte""",Louis-Braille-Straße,10365,35,09116,Chemnitz,0,1,https:\\www.sfz-chemnitz.de,0371 67600280,,kkaiser@sfz-chemnitz.de,1,1
12.8372980275038,50.8270345425961,184,184,"Kinder-, Jugend- u. Familienhilfe e. V. Chemnitz","Weydemeyerstraße 21 ""Rabennest""","Weydemeyerstraße 21 ""Rabennest""",Weydemeyerstraße,12355,21,09117,Chemnitz,0,1,http://www.kjf-online.de,0371 49502355,,kita-weydemeyerstrasse@kjf-online.de,0,1
12.8904260330663,50.8290205295122,185,185,CVJM Computerclub e. V.,"Am Laubengang 15 ""Medienkindergarten kikkif@x""","Am Laubengang 15 ""Medienkindergarten kikkif@x""",Am Laubengang,10140,15,09116,Chemnitz,0,1,,0371 3540002,,post@kikkifax.de,0,0
12.951540475107,50.7873645927509,186,186,"Kinder-, Jugend- u. Familienhilfe e. V. Chemnitz","Erfenschlager Straße 149 ""Kinderhaus LEONARDO""","Erfenschlager Straße 149 ""Kinderhaus LEONARDO""",Erfenschlager Straße,26100,149,09125,Chemnitz,0,1,http://www.kjf-online.de,0371 49502380,,kinderhaus-leonardo@kjf-online.de,0,1
12.9494674678038,50.789590584576,187,187,Kreativ-Villa GmbH,"Erfenschlager Straße 137 ""Kreativ-Villa""","Erfenschlager Straße 137 ""Kreativ-Villa""",Erfenschlager Straße,26100,137,09125,Chemnitz,0,1,http://www.kreativ-villa.de,0371 5430659,,info@kreativ-villa.de,0,0
12.8983577915334,50.8652783328001,188,188,Waldorfkindergartenverein Chemnitz e. V.,"Auerswalder Straße 120, Hort Parzival-Förderschule","Auerswalder Straße 120, Hort Parzival-Förderschule",Auerswalder Straße,13135,120,09114,Chemnitz,1,1,http://www.waldorfkindergarten-chemnitz.de,0371 33407652,,Jana.Busse@waldorfschule-chemnitz.de,0,1
12.9425375240301,50.8347732700064,189,189,Caritasverband für Chemnitz und Umgebung e. V.,"Pestalozzistraße 33 ""Schatzkiste""","Pestalozzistraße 33 ""Schatzkiste""",Pestalozzistraße,4340,33,09130,Chemnitz,0,1,http://www.caritas-chemnitz.de/index.php/k?layout=edit&id=41.de,0371 56014764,,kindergarten@caritas-chemnitz.de,0,0
12.9627513679519,50.8298362004475,190,190,"Elterninitiative Kinderladen ""Tigerente"" e. V.","Clausewitzstraße 4 ""Kinderladen""","Clausewitzstraße 4 ""Kinderladen""",Clausewitzstraße,5195,4,09130,Chemnitz,0,1,http://www.tigerente-chemnitz.de,0371 4059979,,kinderladen@tigerente-chemnitz.de,0,0
12.9627513679519,50.8298362004475,191,191,Stadt Chemnitz,Clausewitzstraße 4,Clausewitzstraße 4,Clausewitzstraße,5195,4,09130,Chemnitz,0,1,,0371 7008509,,kita-clausewitzstr@stadt-chemnitz.de,0,1
12.8994398622276,50.814758436278,192,192,Stadt Chemnitz,"Richard-Wagner-Straße 76, Hort G.-Götz-Schule für Hörgeschädigte","Richard-Wagner-Straße 76, Hort G.-Götz-Schule für Hörgeschädigte",Richard-Wagner-Straße,9280,76,09120,Chemnitz,1,0,,0371 23629818,,kita-goetzGS@stadt-chemnitz.de,0,1
12.8920010106364,50.8287175157383,193,193,Kinderbetreuung Sonnenblume e. V.,Hoher Weg 3,Hoher Weg 3,Hoher Weg,10290,3,09116,Chemnitz,0,1,http://www.kinderbetreuung-sonnenblume.de,0371 3551956,,sonnenblumeev@gmx.de,0,0
12.9217027704589,50.8296935115147,194,194,Stadt Chemnitz,"Moritzstraße 33 ""Kita an der Sparkasse""","Moritzstraße 33 ""Kita an der Sparkasse""",Moritzstraße,1440,33,09111,Chemnitz,0,1,,0371 49529708,,kita-moritzstr@stadt-chemnitz.de,1,1
12.8824420727347,50.8429605219434,195,195,SFZ Förderzentrum gGmbH,"Flemmingstraße 4a ""Kindergarten der Sinne""","Flemmingstraße 4a ""Kindergarten der Sinne""",Flemmingstraße,10245,4a,09116,Chemnitz,0,1,http://www.SFZ-CHEMNITZ.de,0371 33513980,,sstoeckel@sfz-chemnitz.de,1,1
12.8979607017287,50.7935675258238,196,196,BIP-Kreativitätszentrum gGmbH,"Dittersdorfer Straße 146c, Hort der BIP Kreativitätsgrundschule Chemnitz","Dittersdorfer Straße 146c, Hort der BIP Kreativitätsgrundschule Chemnitz",Dittersdorfer Straße,28100,146c,09122,Chemnitz,1,0,http://www.bipschulen.de,0371 3342820,,kontakt@gsc.bipschulen.de,0,0
12.9386966708606,50.8514183225207,197,197,DPFA Schulen gGmbH,"Emilienstraße 48, Hort Freie GS-Regenbogen","Emilienstraße 48, Hort Freie GS-Regenbogen",Emilienstraße,21140,48,09131,Chemnitz,1,0,http://www.regenbogen-schulen.de/freie-grundschule-chemnitz/,0371 45901130,,chemnitz.grundschule@regenbogen-schulen.com,0,0
12.8824197328207,50.7913085949677,198,198,Integrative Sport- und Bildungsförderung (ISB) Che,"Max-Türpe-Straße 40, ISB Sporthort","Max-Türpe-Straße 40, ISB Sporthort",Max-Türpe-Straße,8235,40,09122,Chemnitz,1,0,http://www.isb-chemnitz.de,0371 56074676,,sporthort@isb-chemnitz.de,1,1
12.9371445512211,50.8318613507427,199,199,Jüdische Gemeinde,"Tschaikowskistraße 9 ""Schalom""","Tschaikowskistraße 9 ""Schalom""",Tschaikowskistraße,4430,9,09130,Chemnitz,0,1,,0371 35590580,,i.vovk@jg-chemnitz.de,0,0
12.8626248771107,50.7981506850947,200,200,Montessori Schulen Chemnitz und Thalheim GmbH,"Stelzendorfer Straße 271, Hort Freie Montessorischule","Stelzendorfer Straße 271, Hort Freie Montessorischule",Stelzendorfer Straße,11600,271,09116,Chemnitz,1,1,https://meinmontessori.de,0371 2366890,,schule-stelzendorf@meinmontessori.de,0,1
12.8814206778484,50.7840276276322,201,201,"Kinder-, Jugend- u. Familienhilfe e. V. Chemnitz","Wolgograder Allee 184, Hort Freie GS-Leonardo","Wolgograder Allee 184, Hort Freie GS-Leonardo",Wolgograder Allee,8280,184,09123,Chemnitz,1,1,http://www.kjf-online.de,0371 4959960,,Hort-leonardo@kjf-online.de,0,1
12.8823370717799,50.8399895240461,202,202,Stadt Chemnitz,"Albert-Schweitzer-Straße 61, Hort E.-G.-Flemming-GS","Albert-Schweitzer-Straße 61, Hort E.-G.-Flemming-GS",Albert-Schweitzer-Straße,10115,61,09116,Chemnitz,1,0,,0371 49529751,,kita-flemmingGS@stadt-chemnitz.de,0,1
12.9010796649564,50.784298579085,203,203,Stadt Chemnitz,"Alfred-Neubert-Straße 25, Hort Charles-Darwin-GS, nur 1. Klasse","Alfred-Neubert-Straße 25, Hort Charles-Darwin-GS, nur 1. Klasse",Alfred-Neubert-Straße,8105,25,09123,Chemnitz,1,0,,0371 4958400,,kita-neubertstr@stadt-chemnitz.de,0,1
12.8251060396641,50.8115116421283,204,204,Stadt Chemnitz,"Lennéstraße 1, Hort GS-Reichenbrand","Lennéstraße 1, Hort GS-Reichenbrand",Lennéstraße,11425,1,09117,Chemnitz,1,0,,0371 851353,,kita-bretschneiderstr@stadt-chemnitz.de,0,1
12.9706724447791,50.770337644054,205,205,Stadt Chemnitz,"Harthauer Weg 5, Hort GS-Einsiedel","Harthauer Weg 5, Hort GS-Einsiedel",Harthauer Weg,46197,5,09123,Chemnitz,1,0,,037209 691467,,kita-einsiedelGS@stadt-chemnitz.de,0,0
12.8840220904899,50.8325535730261,206,206,Stadt Chemnitz,"Ernst-Heilmann-Straße 11, Hort Altendorfer-GS","Ernst-Heilmann-Straße 11, Hort Altendorfer-GS",Ernst-Heilmann-Straße,10235,11,09116,Chemnitz,1,0,,0371 65116630,,kita-harthweg@stadt-chemnitz.de,0,0
12.8803397096966,50.7874916133008,207,207,Stadt Chemnitz,"Ernst-Wabra-Straße 34, Hort der Sprachheilschule Ernst Busch","Ernst-Wabra-Straße 34, Hort der Sprachheilschule Ernst Busch",Ernst-Wabra-Straße,8155,34,09123,Chemnitz,1,0,,0371 4952606,,kita-sprachheilschule@stadt-chemnitz.de,0,1
12.894075691306,50.7922355477348,208,208,"Kinder-, Jugend- u. Familienhilfe e. V. Chemnitz","Wilhelm-Firl-Straße 4 ""Zwischenstopp""","Wilhelm-Firl-Straße 4 ""Zwischenstopp""",Wilhelm-Firl-Straße,8275,4,09122,Chemnitz,0,0,http://www.kjf-online.de,0371 2823185,,zwischenstopp@kjf-online.de,0,1
12.9013248619352,50.8178084437979,209,209,solaris Förderzentrum für Jugend und Umwelt gGmbH ,"Haydnstraße 21, Hort Valentina-Tereschkowa-GS, ""Kinderhort Kappelino""","Haydnstraße 21, Hort Valentina-Tereschkowa-GS, ""Kinderhort Kappelino""",Haydnstraße,9170,21,09119,Chemnitz,1,0,http://www.solaris-fzu.de,0176 13810804,,hort-kappelino@solaris-fzu.de,0,0
12.9109797847796,50.8158584662273,210,210,Privater Träger,"Paul-Gruner-Straße 12 ""Marienkäfer"", Kindertagespflege","Paul-Gruner-Straße 12 ""Marienkäfer"", Kindertagespflege",Paul-Gruner-Straße,6305,12,09120,Chemnitz,0,1,,0152 21553201,,maus060@arcor.de,0,0
12.9101977727981,50.8555353931985,211,211,Privater Träger,"Rilkestraße 32 ""Küchwaldknirpse"", Kindertagespflege","Rilkestraße 32 ""Küchwaldknirpse"", Kindertagespflege",Rilkestraße,21180,32,09114,Chemnitz,0,1,,0371 3367030,,sabine.eckardt63@gmx.de,0,0
12.9775754051665,50.7702296243314,212,212,Privater Träger,"Anton-Herrmann-Straße 14 ""Tagesmutti im Grünen"", Kindertagespflege","Anton-Herrmann-Straße 14 ""Tagesmutti im Grünen"", Kindertagespflege",Anton-Herrmann-Straße,46128,14,09123,Chemnitz,0,1,,037209 3357,,steffi@rbby.de,0,0
12.9534524777909,50.7881825925513,213,213,Privater Träger,"Albert-Junghans-Straße 18 ""Steinbergzwerge"", Kindertagespflege","Albert-Junghans-Straße 18 ""Steinbergzwerge"", Kindertagespflege",Albert-Junghans-Straße,6110,18,09125,Chemnitz,0,1,http://www.steinbergzwerge.de,0152 56143255,,info@steinbergzwerge.de,0,0
12.9549844372364,50.8244113475147,214,214,Privater Träger,"Postweg 4a ""Die kleinen Strolche"", Kindertagespflege","Postweg 4a ""Die kleinen Strolche"", Kindertagespflege",Postweg,4360,4a,09127,Chemnitz,0,1,http://www.diekleinenstrolche-chemnitz.de,0157 30989077,,n.bartl@diekleinenstrolche-chemnitz.de,1,0
12.9549844372364,50.8244113475147,215,215,Privater Träger,"Postweg 4a ""Glückskäfer"", Kindertagespflege","Postweg 4a ""Glückskäfer"", Kindertagespflege",Postweg,4360,4a,09127,Chemnitz,0,1,http://www.glueckskaefer-chemnitz.de,0178 1355746,,a.fischer@glueckskaefer-chemnitz.de,0,0
12.777498241823,50.8098246920017,216,216,Privater Träger,"Alte Sandgrube 2, Kindertagespflege","Alte Sandgrube 2, Kindertagespflege",Alte Sandgrube,95100,2,09224,Chemnitz,0,1,,0371 8202506,,syluhlig@googlemail.com,0,0
12.897190863631,50.8187324263101,217,217,Privater Träger,"Chopinstraße 35 ""Zwergenfüße"", Kindertagespflege","Chopinstraße 35 ""Zwergenfüße"", Kindertagespflege",Chopinstraße,9130,35,09119,Chemnitz,0,1,http://www.Kindertagespflege-Zwergenfuesse.de,0176 22762081,,vivien.schreier@gmx.de,0,0
12.9385588934402,50.8449916307463,218,218,Privater Träger,"Thomas-Mann-Platz 4 ""Manus Buntstifte"", Kindertagespflege","Thomas-Mann-Platz 4 ""Manus Buntstifte"", Kindertagespflege",Thomas-Mann-Platz,3335,4,09130,Chemnitz,0,1,,0173 2701432,,manuela.goetze82@gmail.com,0,0
12.9045499398227,50.8416885244443,219,219,Privater Träger,"Konradstraße 7 ""Liebevoll & Konsequent"", Kindertagespflege","Konradstraße 7 ""Liebevoll & Konsequent"", Kindertagespflege",Konradstraße,10331,7,09113,Chemnitz,0,1,,0176 70719618,,tamu.mandy@googlemail.com,0,0
12.8964798576104,50.8179984246169,220,220,Privater Träger,"Horststraße 14 ""Kleine Sternchen"", Kindertagespflege","Horststraße 14 ""Kleine Sternchen"", Kindertagespflege",Horststraße,9190,14,09119,Chemnitz,0,1,,0157 35131434,,susann.kupries@gmail.com,0,0
12.8925798870861,50.8136384464466,221,221,Privater Träger,"Irkutsker Straße 77 ""Grünschnäbel"", Kindertagespflege","Irkutsker Straße 77 ""Grünschnäbel"", Kindertagespflege",Irkutsker Straße,9205,77,09119,Chemnitz,0,1,,0176 63067598,,sgrosche@yahoo.de,0,0
12.897190863631,50.8187324263101,222,222,Privater Träger,"Chopinstraße 35 ""Entdeckerkosmos 2"", Kindertagespflege","Chopinstraße 35 ""Entdeckerkosmos 2"", Kindertagespflege",Chopinstraße,9130,35,09119,Chemnitz,0,1,https://www.kindertagespflege-zwergenfuesse.de  Entdeckerkosmos ist Integriert,0173 2875452,,susan-schubert1@web.de,0,0
12.8977349801728,50.836336527253,223,223,Privater Träger,"Erich-Mühsam-Straße 21 ""Spatzennest"", Kindertagespflege","Erich-Mühsam-Straße 21 ""Spatzennest"", Kindertagespflege",Erich-Mühsam-Straße,10230,21,09112,Chemnitz,0,1,,0371 50341045,,janinekormos@web.de,0,0
12.8729051235789,50.8424564548695,224,224,Privater Träger,"Steinwiese 62 ""Kleine Raben"", Kindertagespflege","Steinwiese 62 ""Kleine Raben"", Kindertagespflege",Steinwiese,10445,62,09116,Chemnitz,0,1,,0152 09450517,,zinni79@web.de,0,0
13.0313302684735,50.7987753159648,225,225,Privater Träger,"Ferdinandstraße 157 ""Kindertagespflege im Sternmühlental"", Kindertagespflege","Ferdinandstraße 157 ""Kindertagespflege im Sternmühlental"", Kindertagespflege",Ferdinandstraße,1245,157,09128,Chemnitz,0,1,http://www.tagesmutter-dorena.de,0371 7710877,,ma_dora@web.de,0,0
13.0078291661472,50.8002652752856,226,226,Privater Träger,"Zum Adelsberg 6, Kindertagespflege","Zum Adelsberg 6, Kindertagespflege",Zum Adelsberg,26315,6,09128,Chemnitz,0,1,,0371 772991,,lorenzheidi@arcor.de,0,0
12.8216080277899,50.8150616060204,227,227,Privater Träger,"Grenzweg 16 ""Wohlbehütet"", Kindertagespflege","Grenzweg 16 ""Wohlbehütet"", Kindertagespflege",Grenzweg,11315,16,09117,Chemnitz,0,0,,0174 9207622,,wohlbehuetet29@gmail.com,0,0
12.9542593134778,50.7970075298511,228,228,Arbeiterwohlfahrt Soziale Dienste Chemnitz und Umg,"Genossenschaftsweg 9 ""Die Goldfische"", Kindertagespflege","Genossenschaftsweg 9 ""Die Goldfische"", Kindertagespflege",Genossenschaftsweg,6235,9,09125,Chemnitz,0,1,http://www.awo-chemnitz.de,0172 1311822,,kita.reichenhain@awo-chemnitz.de,0,0
12.8235750146007,50.8629902998417,229,229,Privater Träger,"Goetheweg 86b ""Röhrsdorfer Käferland"", Kindertagespflege","Goetheweg 86b ""Röhrsdorfer Käferland"", Kindertagespflege",Goetheweg,96230,86b,09247,Chemnitz,0,1,,0162 9620520,,bianca-kb@web.de,0,0
12.8114250581455,50.8627403213066,230,230,Privater Träger,"Löbenhainer Straße 5 ""Kleine Schmetterlinge"", Kindertagespflege","Löbenhainer Straße 5 ""Kleine Schmetterlinge"", Kindertagespflege",Löbenhainer Straße,96340,5,09247,Chemnitz,0,1,,0152 29368802,,sabi.eisfeld@web.de,0,0
12.8607840605622,50.8578634089382,231,231,Privater Träger,"Darwinweg 3 ""Zwergenstübchen"", Kindertagespflege","Darwinweg 3 ""Zwergenstübchen"", Kindertagespflege",Darwinweg,96170,3,09247,Chemnitz,0,1,,03722 796895,,BiancaRost@web.de,1,0
12.932002687133,50.8486333511858,232,232,Privater Träger,"Straße der Nationen 91 ""Tipp Tapp"", Kindertagespflege","Straße der Nationen 91 ""Tipp Tapp"", Kindertagespflege",Straße der Nationen,1570,91,09113,Chemnitz,0,1,,0152 01949684,,bummel2002@freenet.de,0,0
12.926779697177,50.8493983773013,233,233,Privater Träger,"Richardstraße 10 ""Der zauberhafte Tagespapi"" "", Kindertagespflege","Richardstraße 10 ""Der zauberhafte Tagespapi"" "", Kindertagespflege",Richardstraße,1510,10,09113,Chemnitz,0,1,http://www.clown-fridolin.de,0179 4216207,,info@clown-fridolin.de,0,0
12.9178387206178,50.8522583917092,234,234,Privater Träger,"Im Schloßwald 1 ""Küchwaldstrolche"", Kindertagespflege","Im Schloßwald 1 ""Küchwaldstrolche"", Kindertagespflege",Im Schloßwald,1325,1,09113,Chemnitz,0,1,,0371 3379069,,kuechwaldstrolche@gmx.de,0,0
12.8697859684746,50.8183595892295,235,235,Privater Träger,"Edisonstraße 5 ""Zwergennest"", Kindertagespflege","Edisonstraße 5 ""Zwergennest"", Kindertagespflege",Edisonstraße,11250,5,09116,Chemnitz,0,1,,0152 04884908,,kindertagespflege.zwergennest@googlemail.com,0,0
12.8707929589203,50.8177295789859,236,236,Privater Träger,"Stelzendorfer Straße 9 ""Vogelpieps"", Kindertagespflege","Stelzendorfer Straße 9 ""Vogelpieps"", Kindertagespflege",Stelzendorfer Straße,11600,9,09116,Chemnitz,0,1,http://www.vogelpieps.de,0173 5946681,,romy.vogel@hotmail.de,0,0
12.841902057544,50.8182825961525,237,237,Privater Träger,"Rosmarinstraße 19 ""BimBamBommel"", Kindertagespflege","Rosmarinstraße 19 ""BimBamBommel"", Kindertagespflege",Rosmarinstraße,11545,19,09117,Chemnitz,0,1,,0176 20691053,,yvonne.dinter@freenet.de,0,0
12.8668350864222,50.8872651778425,238,238,Privater Träger,"Burgstädter Straße 54, Kindertagespflege","Burgstädter Straße 54, Kindertagespflege",Burgstädter Straße (Witt,97250,54,09228,Chemnitz,0,1,,0162 2418264,,carmen.straube914@googlemail.com,0,0
12.9279646949565,50.8314924700975,239,239,Privater Träger,"Theresenstraße 11 ""Parkstrolche"", Kindertagespflege","Theresenstraße 11 ""Parkstrolche"", Kindertagespflege",Theresenstraße,1590,11,09111,Chemnitz,0,0,,0162 2715109,,bettina-motzer@web.de,0,0
12.9052828629421,50.8456965171244,240,240,Privater Träger,"Altendorfer Straße 5 ""Wurzelzwerge"", Kindertagespflege","Altendorfer Straße 5 ""Wurzelzwerge"", Kindertagespflege",Altendorfer Straße,21100,5,09113,Chemnitz,0,1,,0157 51244776,,5wurzelzwerge@gmx.de,0,0
12.9424045905186,50.844666198698,241,241,Privater Träger,"Forststraße 4 ""Purzelräuber"", Kindertagespflege","Forststraße 4 ""Purzelräuber"", Kindertagespflege",Forststraße,23100,4,09130,Chemnitz,0,1,,0176 61403388,,vera.luz@web.de,0,0
