X,Y,OBJECTID,ID,TRAEGER,LEISTUNGEN,BEZEICHNUNG,KURZBEZEICHNUNG,STRASSE,PLZ,ORT,TELEFON,EMAIL,FAX
12.8850360603135,50.8633389905466,1,1,Regenbogenbus e. V. ,Schulsozialarbeit,,,Wittgensdorfer Straße 121a,09114,Chemnitz,0176 56707782,,
12.8864253328506,50.8622459346951,2,2,Regenbogenbus e. V. ,Schulsozialarbeit,,,Wittgensdorfer Straße 121,09114,Chemnitz,"0371 2786887-10
0176 56721413",,
12.8980267295606,50.8620186720013,3,3,Arbeiterwohlfahrt Soziale Dienste Chemnitz und Umgebung gGmbH,Schulsozialarbeit,,,Sandstraße 102,09114,Chemnitz,,,
12.7857570982484,50.8134154980481,4,4,Arbeiterwohlfahrt Soziale Dienste Chemnitz und Umgebung gGmbH,Schulsozialarbeit,,,August-Bebel-Straße (Grüna) 7,09224,Chemnitz,0172 1461720,,
12.8733752933211,50.8229833201809,5,5,solaris Förderzentrum für Jugend & Umwelt gGmbH Sachsen,Schulsozialarbeit,,,Guerickestraße 38,09116,Chemnitz,"0371 815760
0176 1381 0815",,
12.8251258225996,50.8115128110385,6,6,Selbsthilfe Wohnprojekt Further Straße e. V.,Schulsozialarbeit,,,Lennéstraße 1,09117,Chemnitz,"0371 8157527
0174 3522231",,
12.8823574393427,50.8399911254795,7,7,Selbsthilfe Wohnprojekt Further Straße e. V.,Schulsozialarbeit,,,Albert-Schweitzer-Straße 61,09116,Chemnitz,0157 80549073,,
12.9013606031607,50.8450880325514,8,8,Regenbogenbus e. V. ,Schulsozialarbeit,,,Arthur-Bretschneider-Straße 17,09113,Chemnitz,"0371 374360
0157 33972736",,
12.8840422701945,50.8325546104525,9,9,Selbsthilfe Wohnprojekt Further Straße e. V.,Schulsozialarbeit,,,Ernst-Heilmann-Straße 11,09116,Chemnitz,"0371  3691415
01577 6372129
0176 73511217",,
12.876749147522,50.8425583937128,10,10,Regenbogenbus e. V. ,Schulsozialarbeit,,,Flemmingstraße 8g,09116,Chemnitz,0371  80818146,,
12.9026935754136,50.8413040029236,11,11,solaris Förderzentrum für Jugend & Umwelt gGmbH Sachsen,Schulsozialarbeit,,,Fritz-Matschke-Straße 21,09113,Chemnitz,"0371 3741914
0176 168 550 43",,
12.9027950932735,50.8416189519938,12,12,solaris Förderzentrum für Jugend & Umwelt gGmbH Sachsen,Schulsozialarbeit,,,Fritz-Matschke-Straße 23,09113,Chemnitz,"0371 3741917
0176 138 108 09",,
12.9080500786032,50.8292552027294,13,13,inpeos e. V.,Schulsozialarbeit,,,Heinrich-Beck-Straße 2,09112,Chemnitz,"0371 302956
0151 654 780 76 ",,
12.9024222464489,50.8354310560147,14,14,inpeos e. V.,Schulsozialarbeit,,,Henriettenstraße 35,09112,Chemnitz,0176 14622579,,
12.911862861039,50.8352668312807,15,15,solaris Förderzentrum für Jugend & Umwelt gGmbH Sachsen,Schulsozialarbeit,,,Hohe Straße 35,09112,Chemnitz,01761 6855039,,
12.9296492190006,50.8498707697401,16,16,solaris Förderzentrum für Jugend & Umwelt gGmbH Sachsen,Schulsozialarbeit,,,Josephinenplatz 9,09113,Chemnitz,"0371 4497-950
0176 16855037
",,
12.9068504559025,50.835447608084,17,17,Selbsthilfe Wohnprojekt Further Straße e. V.,Schulsozialarbeit,,,Reichsstraße 45,09112,Chemnitz,"0371 3816523
0157 76372125",,
12.8994600283918,50.8147593898924,18,18,Regenbogenbus e. V. ,Schulsozialarbeit,,,Richard-Wagner-Straße 76,09120,Chemnitz,0371 2720918,,
12.8928433256839,50.8030042437469,19,19,solaris Förderzentrum für Jugend & Umwelt gGmbH Sachsen,Schulsozialarbeit,,,Scheffelstraße 18,09120,Chemnitz,"0371 2815717
0176 16855036",,
12.8856222242871,50.8057303827128,20,20,Arbeiterwohlfahrt Soziale Dienste Chemnitz und Umgebung gGmbH,Schulsozialarbeit,,,Straße Usti nad Labem 277,09119,Chemnitz,0163 4158153 ,,
12.8850807101631,50.805262135884,21,21,Arbeiterwohlfahrt Soziale Dienste Chemnitz und Umgebung gGmbH,Schulsozialarbeit,,,Straße Usti nad Labem 279,09119,Chemnitz,"
0162 214 3737",,
12.8889423266504,50.7930311466346,22,22,KINDERLAND-Sachsen e. V.,Schulsozialarbeit,,,Albert-Köhler-Straße 48,09122,Chemnitz,"0371 2660125
0177343 2570
",,
12.902724392555,50.7914847502766,23,23,KINDERLAND-Sachsen e. V.,Schulsozialarbeit,,,Arno-Schreiter-Straße 1,09123,Chemnitz,"0371 262121 915
0177 3432570",,
12.9019557001839,50.7840835945015,24,24,inpeos e. V.,Schulsozialarbeit,,,Alfred-Neubert-Straße 25,09123,Chemnitz,0371 2660217,,
12.902724392555,50.7914847502766,25,25,"Kinder-, Jugend- und Familienhilfe e. V. Chemnitz",Schulsozialarbeit,,,Arno-Schreiter-Straße 1,09123,Chemnitz,"0371 3816622
0160-93941924",,
12.8872762658422,50.7922749102438,26,26,Arbeiterwohlfahrt Soziale Dienste Chemnitz und Umgebung gGmbH,Schulsozialarbeit,,,Max-Türpe-Straße 58,09122,Chemnitz,01634158171,,
12.9162479011136,50.8353107212991,27,27,Regenbogenbus e. V. ,Schulsozialarbeit,,,An der Markthalle 10,09111,Chemnitz,0371 67521130,,
12.9218298722116,50.8280539252831,28,28,"Kinder-, Jugend- und Familienhilfe e. V. Chemnitz",Schulsozialarbeit,,,Brauhausstraße 16,09111,Chemnitz,"0371 36913120
0160 93941956",,037149502728 0371495
12.9218298722116,50.8280539252831,29,29,"Kinder-, Jugend- und Familienhilfe e. V. Chemnitz",Schulsozialarbeit,,,Brauhausstraße 16,09111,Chemnitz,"0371 36913117
0160 93942068",,037149502128
12.9399234062508,50.8158443616826,30,30,KINDERVEREINIGUNG Chemnitz e. V.,Schulsozialarbeit,,,Augsburger Straße 32,09126,Chemnitz,0163 7027853,,0371 5212865
12.9421690561178,50.8159174147348,31,31,KINDERVEREINIGUNG Chemnitz e. V.,Schulsozialarbeit,,,Bernsdorfer Straße 126,09126,Chemnitz,"0152 29997591
0371 4027854
",,0371 5212865
12.9249146500484,50.8434122247297,32,32,"Kinder-, Jugend- und Familienhilfe e. V. Chemnitz",Schulsozialarbeit,,,Brühl 59,09111,Chemnitz,0371 4714117   0371 49502100,,0371 49502128
12.9013451596457,50.8178100083381,33,33,solaris Förderzentrum für Jugend & Umwelt gGmbH Sachsen,Schulsozialarbeit,,,Haydnstraße 21,09119,Chemnitz,0371 3691615,,0371 3685501
12.9305215412994,50.8304238615326,34,34,Arbeiterwohlfahrt Soziale Dienste Chemnitz und Umgebung gGmbH    ,Schulsozialarbeit,,,Park der Opfer des Faschismus 2,09111,Chemnitz,0173 5171658         0371 6956182,,0371 6956105
12.937251881947,50.8029705326177,35,35,KINDERVEREINIGUNG Chemnitz e. V.,Schulsozialarbeit,,,Reichenhainer Straße 206,09125,Chemnitz,"
0152 299 975 85     0371 4027854",,0371 5212865
12.9156510937022,50.8383383631828,36,36,Regenbogenbus e. V. ,Schulsozialarbeit,,,Schloßstraße 3,09111,Chemnitz,"0371 488-8049
0159 06501248 037200 88291",,0372 0081725
12.9110148524672,50.7993813312941,37,37,Selbsthilfe Wohnprojekt Further Straße e. V.,Schulsozialarbeit,,,Schulstraße 2,09125,Chemnitz,"
01577 637 2127
0179 439 3809
",,
12.91265888046,50.8239270383139,38,38,Förderverein Chemnitzer Schulmodell e. V.,Schulsozialarbeit,,,Stollberger Straße 25,09119,Chemnitz,0371 69576486,,
12.936586997522,50.802884141863,39,39,KINDERVEREINIGUNG Chemnitz e. V.,Schulsozialarbeit,,,Reichenhainer Straße 210,09125,Chemnitz,0152 299 975 93,,0371 5212865
12.9488765826542,50.8527261988194,40,40,F+U Sachsen gGmbH     ,Schulsozialarbeit,,,Ludwig-Richter-Straße 19,09131,Chemnitz,0174 918 0871,,
12.9397707592911,50.841262725248,41,41,Don Bosco Sachsen,Schulsozialarbeit,,,Reinhardtstraße 6,09130,Chemnitz,"03724 600
0151 70388891
",,03724 60910
12.954409907451,50.8394367197235,42,42,Regenbogenbus e. V. ,Schulsozialarbeit,,,Heinrich-Schütz-Straße 61,09130,Chemnitz,0371 39893012,,
12.9480600569853,50.8353511594525,43,43,"Kinder-, Jugend- und Familienhilfe e. V. Chemnitz",Schulsozialarbeit,,,Humboldtplatz 1,09130,Chemnitz,0371 39892836,,
12.9412264741818,50.8364972682956,44,44,Don Bosco Sachsen,Schulsozialarbeit,,,Ludwig-Kirsch-Straße 27,09130,Chemnitz,0175 7015847,,0371 43316270
12.9412264741818,50.8364972682956,45,45,Don Bosco Sachsen,Schulsozialarbeit,,,Ludwig-Kirsch-Straße 27,09130,Chemnitz,"0371 43316013
0175 701 4956
0171 566 0262
",,0371 43316270
12.9386579069539,50.8372324492807,46,46,Stadtmission Chemnitz e. V.,Schulsozialarbeit,,,Tschaikowskistraße 49,09130,Chemnitz,"0371 4331970
0175 2218432",,
12.9353668964667,50.8358567671611,47,47,Don Bosco Sachsen,Schulsozialarbeit,,,Uhlandstraße 2,09130,Chemnitz,0171 5660262,,0371 43316270
12.9665728167273,50.8316116358909,48,48,Regenbogenbus e. V. ,Schulsozialarbeit,,,Ernst-Moritz-Arndt-Straße 1a,09130,Chemnitz,0176 45992551,,
12.9527862375367,50.8310069733292,49,49,Stadtmission Chemnitz e. V.,Schulsozialarbeit,,,Adelsbergstraße 90,09126,Chemnitz,"0371  52039891
0177 9140042",,
12.9629177798337,50.8319919787425,50,50,Verein zur Beruflichen Förderung und Ausbildung e. V. (VBFA),Schulsozialarbeit,,,Ernst-Moritz-Arndt-Straße 4,09130,Chemnitz,"0371 722139
0174 5173621",,
12.9544779086957,50.8196174538935,51,51,KINDERVEREINIGUNG Chemnitz e. V.,Schulsozialarbeit,,,Kreherstraße 101,09127,Chemnitz,0163 7027852,,
