X,Y,OBJECTID,ID,TYP,ART,STANDORTTYP,BEZEICHNUNG,BEZEICHNUNGZUSATZ,KURZBEZEICHNUNG,STRASSE,PLZ,ORT,TELEFON,FAX,EMAIL,PROFILE,SPRACHEN,WWW,TRAEGER,TRAEGERTYP,BEZUGNR,GEBIETSARTNUMMER,SNUMMER,NUMMER,GlobalID,CreationDate,Creator,EditDate,Editor
12.8872762658422,50.7922749102438,1,1,10,Grundschule,1,Albert-Einstein-Grundschule,,Albert-Einstein-GS,Max-Türpe-Straße 58,09122,Chemnitz,0371 271710,0371 2717119,gs-albert-einstein@schulen-chemnitz.de,"GTA, Hort",,www.c.shuttle.de/a-einstein-gs,Kommunal,10,1,40,101,903,73d96808-1583-4e02-bf98-29c5c5ecaf49,2023/12/15 10:19:55.478+00,GISAdminChemnitz,2023/12/15 10:19:55.478+00,GISAdminChemnitz
12.9218298722116,50.8280539252831,2,2,10,Grundschule,1,Annenschule -Grundschule-,"barrierefreier Zugang, Hort: baubedingte Auslagerung an den Standort Jakobstraße 20, 09130 Chemnitz, bis voraussichtlich Schuljahr 2024/2025",Annenschule -GS-,Brauhausstraße 16,09111,Chemnitz,0371 36913120,0371 36913129,gs-annenschule@schulen-chemnitz.de,"GTA, Hort, jüdischer Religionsunterricht, Vorbereitungsklassen",,www.annenschule.de,Kommunal,10,2,40,105,601,4c92a00f-080b-4d40-beea-3b43723cb171,2023/12/15 10:19:55.493+00,GISAdminChemnitz,2023/12/15 10:19:55.493+00,GISAdminChemnitz
12.9629177798337,50.8319919787425,3,3,10,Grundschule,1,Anton-S.-Makarenko-Grundschule,barrierefreies Schulhaus,Anton-S.-Makarenko-GS,Ernst-Moritz-Arndt-Straße 4,09130,Chemnitz,0371 722139,0371 70089926,gs-makarenko@schulen-chemnitz.de,"GTA, Hort, Vorbereitungsklassen",,www.makarenko-gs.de,Kommunal,10,3,40,106,505,91d2472b-4b6c-49e3-9055-53a27179f395,2023/12/15 10:19:55.509+00,GISAdminChemnitz,2023/12/15 10:19:55.509+00,GISAdminChemnitz
12.7857570982484,50.8134154980481,4,4,10,Grundschule,1,Baumgartenschule Grüna -Grundschule-,barrierefreies Schulhaus,Baumgartenschule Grüna -GS-,August-Bebel-Straße (Grüna) 7,09224,Chemnitz,0371 850089,0371 8101657,gs-baumgarten-gruena@schulen-chemnitz.de,"Hort, Vorbereitungsklassen",,https://schuldatenbank.sachsen.de/index.php?id=100&institution_key=4211272,Kommunal,10,4,40,107,1204,1a4f5d6f-a1fb-4d34-b588-a97784c8e92c,2023/12/15 10:19:55.509+00,GISAdminChemnitz,2023/12/15 10:19:55.509+00,GISAdminChemnitz
12.9019557001839,50.7840835945015,5,5,10,Grundschule,1,Charles-Darwin-Grundschule,,Charles-Darwin-GS,Alfred-Neubert-Straße 25,09123,Chemnitz,0371 266020,0371 2660220,gs-darwin@schulen-chemnitz.de,"GTA, Hort, Vorbereitungsklassen",,www.charles-darwin.c.sn.schule.de/,Kommunal,10,5,40,108,901,e4f62fad-ea21-4a4c-bd8a-ace56bcedcd2,2023/12/15 10:19:55.525+00,GISAdminChemnitz,2023/12/15 10:19:55.525+00,GISAdminChemnitz
12.8850807101631,50.805262135884,6,6,10,Grundschule,1,Dr.-Salvador-Allende-Grundschule,,Dr.-Salvador-Allende-GS,Straße Usti nad Labem 279,09119,Chemnitz,0371 271210,0371 27121220,gs-allende@schulen-chemnitz.de,"GTA, Hort, Stützpunktschule zur Integration von Schülern mit Sprachauffälligkeiten, Inklusion",,www.allende-gs.de,Kommunal,10,6,40,109,1102,4ba24609-dba2-47a9-9b63-a37ec81a8712,2023/12/15 10:19:55.525+00,GISAdminChemnitz,2023/12/15 10:19:55.525+00,GISAdminChemnitz
12.8823574393427,50.8399911254795,7,8,10,Grundschule,1,Emanuel-Gottlieb-Flemming-Grundschule,barrierefreies Schulhaus,Emanuel-Gottlieb-Flemming-GS,Albert-Schweitzer-Straße 61,09116,Chemnitz,0371 300686,0371 901081,gs-flemming@schulen-chemnitz.de,"GTA, Hort",,www.flemming-grundschule.de,Kommunal,10,8,40,111,201,e2fbeb5e-943d-4b79-8c17-a54e5896e664,2023/12/15 10:19:55.540+00,GISAdminChemnitz,2023/12/15 10:19:55.540+00,GISAdminChemnitz
12.9080500786032,50.8292552027294,8,9,10,Grundschule,1,Gebrüder-Grimm-Grundschule,barrierefreier Zugang  ,Gebrüder-Grimm-GS,Heinrich-Beck-Straße 2,09112,Chemnitz,0371 302956,0371 4004719,gs-gebrueder-grimm@schulen-chemnitz.de,"Hort, Vorbereitungsklassen; Projekt für musisch-kreative Bildung",,www.gggs.de,Kommunal,10,9,40,113,204,f67aea54-78cc-4330-971b-b6762cf855bb,2023/12/15 10:19:55.540+00,GISAdminChemnitz,2023/12/15 10:19:55.540+00,GISAdminChemnitz
12.9397707592911,50.841262725248,9,10,10,Grundschule,1,Gotthold-Ephraim-Lessing-Grundschule,barrierefreies Schulhaus,Gotthold-Ephraim-Lessing-GS,Reinhardtstraße 6,09130,Chemnitz,0371 432660,0371 43266220,gs-lessing@schulen-chemnitz.de,"Hort, Stützpunktschule zur Integration von Schülern mit Sprachauffälligkeiten",,,Kommunal,10,10,40,114,501,8a9f16dc-e20c-4f04-9936-9a2664ef9eef,2023/12/15 10:19:55.556+00,GISAdminChemnitz,2023/12/15 10:19:55.556+00,GISAdminChemnitz
12.895297700598,50.8044957626574,10,11,10,Grundschule,1,"Grundschule ""Am Stadtpark""",,"GS ""Am Stadtpark""",Friedrich-Hähnel-Straße 86,09120,Chemnitz,0371 229027,0371 2361736,gs-amstadtpark@schulen-chemnitz.de,Hort,,http://gs-amstadtpark.de/,Kommunal,10,11,40,115,1101,fc28e969-19c6-491a-945e-e8670b5f3be5,2023/12/15 10:19:55.556+00,GISAdminChemnitz,2023/12/15 10:19:55.556+00,GISAdminChemnitz
12.9881505037857,50.8130383762963,11,12,10,Grundschule,1,Grundschule Adelsberg,"baubedingte Auslagerung an den Standort Comeniusstraße 1, 09120 Chemnitz, bis voraussichtlich 2023/2024",GS Adelsberg,Adelsbergstraße 296,09127,Chemnitz,0371 7711180,0371 7711181,gs-adelsberg@schulen-chemnitz.de,Hort,,https://www.gs-adelsberg.de/,Kommunal,10,12,40,116,701,10db12cb-8564-4e9d-84af-e3cd12c8d261,2023/12/15 10:19:55.571+00,GISAdminChemnitz,2023/12/15 10:19:55.571+00,GISAdminChemnitz
12.8840422701945,50.8325546104525,12,13,10,Grundschule,1,Grundschule Altendorf,,GS Altendorf,Ernst-Heilmann-Straße 11,09116,Chemnitz,0371 36914 16,0371 3691422,gs-altendorf@schulen-chemnitz.de,Hort,,http://lily84.lima-city.de,Kommunal,10,13,40,117,202,657d048a-9c2d-455b-9717-22e86582cf52,2023/12/15 10:19:55.571+00,GISAdminChemnitz,2023/12/15 10:19:55.571+00,GISAdminChemnitz
12.8733752933211,50.8229833201809,13,28,10,Grundschule,1,Grundschule Schönau,,GS Schönau,Guerickestraße 38,09116,Chemnitz,0371 8157621,0371 8157626,gs-schoenau@schulen-chemnitz.de,"GTA, Hort",,www.sachsen-macht-schule.de/schulporträt,Kommunal,10,28,40,137,105,16000ff9-fba3-44e5-b6bc-25936fbad2b5,2023/12/15 10:19:55.587+00,GISAdminChemnitz,2023/12/15 10:19:55.587+00,GISAdminChemnitz
12.8451718967182,50.8193122538291,14,29,10,Grundschule,1,Grundschule Siegmar,,GS Siegmar,Rosmarinstraße 12,09117,Chemnitz,0371 842040,0371 8420421,gs-siegmar@schulen-chemnitz.de,Hort,,www.grundschule-siegmar.de,Kommunal,10,29,40,138,104,d63272a6-c2f6-4f59-b068-eb9a625c53bf,2023/12/15 10:19:55.587+00,GISAdminChemnitz,2023/12/15 10:19:55.587+00,GISAdminChemnitz
12.9412264741818,50.8364972682956,15,30,10,Grundschule,1,Grundschule Sonnenberg,,GS Sonnenberg,Ludwig-Kirsch-Straße 27,09130,Chemnitz,0371 36777220,0371 367772218,gs-sonnenberg@schulen-chemnitz.de,Hort,,https://cms.sachsen.schule/gscsonnenberg/start.html,Kommunal,10,30,40,139,503,0e6df524-c87d-4844-9c7f-11feabdc3d6b,2023/12/15 10:19:55.603+00,GISAdminChemnitz,2023/12/15 10:19:55.603+00,GISAdminChemnitz
12.9399234062508,50.8158443616826,16,32,10,Grundschule,1,Heinrich-Heine-Grundschule,barrierefreies Schulhaus,H.-Heine-GS,Augsburger Straße 32,09126,Chemnitz,0371 2786860,0371 27868616,gs-heine@schulen-chemnitz.de,"GTA, Hort, Vorbereitungsklassen",,www.db.sn.schule.de,Kommunal,10,32,40,142,605,04ad5733-f7f6-4b74-80ef-dd9ce898e698,2023/12/15 10:19:55.603+00,GISAdminChemnitz,2023/12/15 10:19:55.603+00,GISAdminChemnitz
12.9141544540022,50.8107193517131,17,33,10,Grundschule,1,Jan-Amos-Comenius-Grundschule,,J.-A.-Comenius-GS,Comeniusstraße 1,09120,Chemnitz,0371 5230716,0371 5230727,gs-comenius@schulen-chemnitz.de,"GTA, Hort, Vorbereitungsklassen",,https://schuldatenbank.sachsen.de/index.php?id=100&institution_key=4210746,Kommunal,10,33,40,143,801,6a9097ef-4e84-4ea9-8d3a-da813436ec1a,2023/12/15 10:19:55.618+00,GISAdminChemnitz,2023/12/15 10:19:55.618+00,GISAdminChemnitz
12.8694931966894,50.8809561444123,18,35,10,Grundschule,1,Kirchner-Grundschule,,Kirchner-GS,Chemnitzer Straße (Wittgensdorf) 2,09228,Chemnitz,037200 88233,037200 81895,gs-kirchner@schulen-chemnitz.de,"GTA, Hort",,www.grundschule-wittgensdorf.de,Kommunal,10,35,40,145,1202,4e0919f2-af67-49bf-8144-24602f0e9be3,2023/12/15 10:19:55.618+00,GISAdminChemnitz,2023/12/15 10:19:55.618+00,GISAdminChemnitz
12.9488765826542,50.8527261988194,19,36,10,Grundschule,1,Ludwig-Richter-Grundschule,barrierefreies Schulhaus,Ludwig-Richter-GS,Ludwig-Richter-Straße 19,09131,Chemnitz,0371 414803,0371 4002583,gs-richter@schulen-chemnitz.de,"Hort, Vorbereitungsklassen; Stützpunktschule zur Integration von Schülern mit Sprachauffälligkeiten",,https://schuldatenbank.sachsen.de/index.php?id=100&institution_key=4210951,Kommunal,10,36,40,147,402,be80db27-682d-4b4d-b0c2-173ba081affd,2023/12/15 10:19:55.618+00,GISAdminChemnitz,2023/12/15 10:19:55.618+00,GISAdminChemnitz
12.9027950932735,50.8416189519938,20,37,10,Grundschule,1,Obere Luisenschule -Grundschule-,barrierefreies Schulhaus,Obere Luisenschule -GS-,Fritz-Matschke-Straße 23,09113,Chemnitz,0371 338010,0371 3380120,gs-obere-luisenschule@schulen-chemnitz.de,"Hort, Stützpunktschule zur Integration von Schülern mit Sprachauffälligkeiten",,https://cms.sachsen.schule/gsols/obereluisenschulegrundschule.html,Kommunal,10,37,40,149,205,ee0ed348-11ac-4bab-9452-27b55a4b058e,2023/12/15 10:19:55.634+00,GISAdminChemnitz,2023/12/15 10:19:55.634+00,GISAdminChemnitz
12.8968045064718,50.8285791667057,21,38,10,Grundschule,1,Pablo-Neruda-Grundschule,barrierefreies Schulhaus ,Pablo-Neruda-GS,Hoffmannstraße 35,09112,Chemnitz,0371 369670,0371 36967214,gs-neruda@schulen-chemnitz.de,Hort,,www.pablo-neruda-grundschule.de,Kommunal,10,38,40,150,203,d72933c5-3fb6-4bb2-b010-76285a688e5c,2023/12/15 10:19:55.650+00,GISAdminChemnitz,2023/12/15 10:19:55.650+00,GISAdminChemnitz
12.9249146500484,50.8434122247297,22,39,10,Grundschule,1,Rosa-Luxemburg-Grundschule am Brühl,,Rosa-Luxemburg-GS am Brühl,Brühl 59,09111,Chemnitz,0371 471410,0371 4714119,gs-luxemburg@schulen-chemnitz.de,"GTA, Hort",,https://schuldatenbank.sachsen.de/index.php?id=100&institution_key=4210704,Kommunal,10,39,40,151,304,41d05ca2-a0ba-4c6d-9357-d3702c13b7a3,2023/12/15 10:19:55.650+00,GISAdminChemnitz,2023/12/15 10:19:55.650+00,GISAdminChemnitz
12.9364821337127,50.8291536304798,23,40,10,Grundschule,1,Rudolfschule -Grundschule-,,Rudolfschule  -GS-,Rudolfstraße 12,09126,Chemnitz,0371 27868880,0371 2786888218,gs-rudolfschule@schulen-chemnitz.de,"GTA, Hort",,www.rudolfschule-chemnitz.de,Kommunal,10,40,40,152,602,53d8c0dd-e1e2-4f68-bbf7-0ee0af07cdfc,2023/12/15 10:19:55.665+00,GISAdminChemnitz,2023/12/15 10:19:55.665+00,GISAdminChemnitz
12.913507638215,50.8469499033289,24,41,10,Grundschule,1,Schlossschule -Grundschule-,barrierefreies Schulhaus,Schlossschule -GS-,Küchwaldstraße 4,09113,Chemnitz,0371 3300397,0371 3350793,gs-schlossschule@schulen-chemnitz.de,"GTA, Hort, mit Sportklassen für technisch-akrobatische Sportarten",,www.sn.schule.de/~gs-schloss-c,Kommunal,10,41a,40,153,302,02c9c32d-8f31-4aac-b936-0db9a6afc4a4,2023/12/15 10:19:55.665+00,GISAdminChemnitz,2023/12/15 10:19:55.665+00,GISAdminChemnitz
12.8995083081153,50.850858190395,25,42,10,Grundschule,2,Schlossschule (Schulteil),barrierefreies Schulhaus,Schlossschule -GS-  ST Sport,Wittgensdorfer Straße 2b,09114,Chemnitz,0371 3302443,0371 3352239,gs-schlossschule@schulen-chemnitz.de,"GTA, Hort, mit Sportklassen für technisch-akrobatische Sportarten",,www.sn.schule.de/~gs-schloss-c,Kommunal,10,41b,40,154,0,fc12bf1e-8e69-49a1-b0bf-6264df591e45,2023/12/15 10:19:55.681+00,GISAdminChemnitz,2023/12/15 10:19:55.681+00,GISAdminChemnitz
12.9013451596457,50.8178100083381,26,43,10,Grundschule,1,Valentina-Tereschkowa-Grundschule,barrierefreier Zugang,Valentina-Tereschkowa-GS,Haydnstraße 21,09119,Chemnitz,0371 369160,0371 3691620,gs-tereschkowa@schulen-chemnitz.de,"GTA, Hort, Vorbereitungsklassen",,www.gs-tereschkowa.de,Kommunal,10,42,40,156,1104,e34c7a37-fe4d-48f4-9805-d2f9e05594b3,2023/12/15 10:19:55.681+00,GISAdminChemnitz,2023/12/15 10:19:55.681+00,GISAdminChemnitz
12.944805462507,50.8273232949198,27,485,10,Grundschule,1,Grundschule Charlottenstraße  - ab Einschulungsjahr 2024/2025,,GS Charlottenstraße - ab Einschulungsjahr 2023,Charlottenstraße 52,09126,Chemnitz,0371 510078,,,,,,Kommunal,10,44,40,172,1206,be4cc0fe-629a-4e21-9d8f-463e2845d316,2023/12/15 10:19:55.696+00,GISAdminChemnitz,2023/12/15 10:19:55.696+00,GISAdminChemnitz
12.9073782571346,50.8326240084176,28,495,10,Grundschule,1,Grundschule Weststraße,barrierefreies Schulhaus,GS Weststraße,Weststraße 19,09112,Chemnitz,0371 2674690,,gs-weststrasse@schulen-chemnitz.de,"GTA, Hort, Vorbereitungsklassen",,https://schuldatenbank.sachsen.de/index.php?id=100&institution_key=4213518,Kommunal,10,,40,1320,1208,f02d32d2-3fee-4a09-ab71-f1b4291ee910,2023/12/15 10:19:55.696+00,GISAdminChemnitz,2023/12/15 10:19:55.696+00,GISAdminChemnitz
12.9366499279407,50.8322979561895,29,496,10,Grundschule,1,"Grundschule ""Südlicher Sonnenberg"" ",barrierefreies Schulhaus,"GS ""Südlicher Sonnenberg""",Jakobstraße 20,09130,Chemnitz,0371 2675850,,jakobstr@schulen-chemnitz.de,"GTA, Hort",,https://cms.sachsen.schule/gscsueso/unsere-schule.html,Kommunal,10,,40,1330,1209,8f527828-a68f-42df-8243-d81ae54a33fe,2023/12/15 10:19:55.712+00,GISAdminChemnitz,2023/12/15 10:19:55.712+00,GISAdminChemnitz
12.954409907451,50.8394367197235,30,497,10,Grundschule,1,Kooperationsschule Chemnitz (Grund- und Oberschule),"baubedingte Auslagerung an den Standort Wittgensdorfer Str. 121, 09114 Chemnitz  bis voraussichtlich Schuljahr 2024/2025; anschließend Brauhausstraße 16, 09111 Chemnitz",Kooperationsschule Chemnitz (GS+OS),Heinrich-Schütz-Straße 61,09130,Chemnitz,0371 27868870,0371 278688719,kooperationsschule-chemnitz@schulen-chemnitz.de,Hort,,https://kooperationsschule-chemnitz.org,Kommunal,10,,40,1340,1207,d1803546-bb8c-4352-88a9-29e06782a36a,2023/12/15 10:19:55.712+00,GISAdminChemnitz,2023/12/15 10:19:55.712+00,GISAdminChemnitz
12.9593611808911,50.8238797723748,31,118,10,Grundschule,1,Montessori-Schule Chemnitz - Freie integrative Schule -Grundschule-,,Montessori-Schule (GS),Ernst-Enge-Straße 21,09127,Chemnitz,0371 71589,0371 70081889,grundschule@montessoriverein-chemnitz.de,,,www.montessori-chemnitz.de,Frei,30,3a,0,923,0,e5f7f237-083c-4492-a5d3-ae9e5ea25b35,2023/12/15 10:19:55.728+00,GISAdminChemnitz,2023/12/15 10:19:55.728+00,GISAdminChemnitz
12.862644944615,50.798151763842,32,120,10,Grundschule,1,Freie Montessori-Grundschule Stelzendorf,,Freie Montessori-GS Stelzendorf,Stelzendorfer Straße 271,09116,Chemnitz,0371 2366890,0371 2366892,montessorischule@jugendstaetten-stocker.de,,,www.montessorischule-stelzendorf.de,Frei,30,4,0,932,0,1ed4b7a3-4fe3-4793-8257-cab1a1e653c3,2023/12/15 10:19:55.728+00,GISAdminChemnitz,2023/12/15 10:19:55.728+00,GISAdminChemnitz
12.8979814660791,50.793569270318,33,121,10,Grundschule,1,BIP-Kreativitätsgrundschule,,BIP Kreativitäts-GS,Dittersdorfer Straße 146c,09122,Chemnitz,0371 3342820,0371 33428220,kontakt@gsc.bipschulen.de,,,www.bipschulen.de,Frei,30,5,0,942,0,ae3c706b-ca6a-4e50-bec6-d85f6c4b5e68,2023/12/15 10:19:55.743+00,GISAdminChemnitz,2023/12/15 10:19:55.743+00,GISAdminChemnitz
12.9392525458278,50.8513927470994,34,145,10,Grundschule,1,DPFA-Regenbogen-Grundschule Chemnitz,,DPFA-Regenbogen-Grundschule Chemnitz,Emilienstraße 50,09131,Chemnitz,0371 45901100,0371 45901111,chemnitz.grundschule@dpfa.de,,,www.regenbogen-schulen.de,Frei,30,24a,0,953,0,9137be0f-9921-48cb-a6df-350e9d61ced7,2023/12/15 10:19:55.743+00,GISAdminChemnitz,2023/12/15 10:19:55.743+00,GISAdminChemnitz
12.8814412249506,50.7840286111597,35,259,10,Grundschule,1,"Freie Grundschule ""Leonardo"" Chemnitz",Schule zur Förderung höher und hoch begabter Kinder,"Freie GS ""Leonardo"" Chemnitz",Wolgograder Allee 184,09123,Chemnitz,0371 4959960,0371 495996-10,grundschule-leonardo@kjf-online.de,,,www.grundschule-leonardo.de,Frei,30,27,0,962,0,7103d079-43ac-4800-9709-d92aedef368b,2023/12/15 10:19:55.759+00,GISAdminChemnitz,2023/12/15 10:19:55.759+00,GISAdminChemnitz
12.9386579069539,50.8372324492807,36,343,10,Grundschule,1,Evangelisches Schulzentrum Chemnitz (Grundschule),,Evangelisches Schulzentrum (GS),Tschaikowskistraße 49,09130,Chemnitz,0371 4331970,0371 43315976,sekretariat-gs@eszc.de,,,www.eszc.de,Frei,30,2a,0,914,0,e00887a4-c305-4b8a-81e2-4b80338fc6cf,2023/12/15 10:19:55.759+00,GISAdminChemnitz,2023/12/15 10:19:55.759+00,GISAdminChemnitz
12.9352089883882,50.7978521601097,37,491,10,Grundschule,1,gruuna Schule gGmbH (Grundschule),,gruuna Schule gGmbH (Grundschule),Saydaer Straße 21,09125,Chemnitz,0371 33715680,-,info@gruuna.schule,,,www.gruuna.schule,Frei,30,31,0,971,0,3a0fbb25-12a1-4438-9f19-b216ad2d11bc,2023/12/15 10:19:55.775+00,GISAdminChemnitz,2023/12/15 10:19:55.775+00,GISAdminChemnitz
12.8889423266504,50.7930311466346,38,45,20,Oberschule,1,Albert-Schweitzer-Oberschule,,Albert-Schweitzer-OS,Albert-Köhler-Straße 48,09122,Chemnitz,0371 266010,0371 2660120,os-schweitzer@schulen-chemnitz.de,"GTA, Schulplanetarium","Englisch, Französisch, Arbeitsgemeinschaft: Französisch",www.albert-schweitzer-mittelschule-chemnitz.de,Kommunal,10,1,0,201,0,a1b3dd26-8f54-43eb-bd70-8eab83552a7f,2023/12/15 10:19:55.775+00,GISAdminChemnitz,2023/12/15 10:19:55.775+00,GISAdminChemnitz
12.9544779086957,50.8196174538935,39,50,20,Oberschule,1,Friedrich-Adolf-Wilhelm-Diesterweg-Oberschule,barrierefreies Schulhaus,F.-A.-W.-Diesterweg-OS,Kreherstraße 101,09127,Chemnitz,0371 54302480,0371 543024825,os-diesterweg@schulen-chemnitz.de,"GTA, Vorbereitungsklassen","Englisch, Französisch, Russisch, Spanisch",diesterweg.sn.lo-net2.de/info/.ws_gen/,Kommunal,10,7,0,209,0,44ebf1cb-d436-45b7-a293-feb9e467bfc0,2023/12/15 10:19:55.790+00,GISAdminChemnitz,2023/12/15 10:19:55.790+00,GISAdminChemnitz
12.9353668964667,50.8358567671611,40,51,20,Oberschule,1,"Oberschule ""Am Körnerplatz"" Chemnitz",barrierefreies Schulhaus nach Abschluss der Sanierung,"OS ""Am Körnerplatz""",Uhlandstraße 2,09130,Chemnitz,0371 2674600,0371 26746020,os-weerth@schulen-chemnitz.de,"GTA, Vorbereitungsklassen; Projekt ""Produktives Lernen"" - Ritterstraße 7","Englisch, Arbeitsgemeinschaft: Russisch",www.georg-weerth-ms-chemnitz.homepage.t-online.de/,Kommunal,10,8,0,210,0,3313819b-1032-4e3c-87f5-7bb51fd59c20,2023/12/15 10:19:55.790+00,GISAdminChemnitz,2023/12/15 10:19:55.790+00,GISAdminChemnitz
12.937251881947,50.8029705326177,41,52,20,Oberschule,1,Sportoberschule Chemnitz,barrierefreies Schulhaus,Sportoberschule,Reichenhainer Straße 206,09125,Chemnitz,0371 4884640,0371 488-4698,os-sport@schulen-chemnitz.de,"GTA, Eliteschule des Sports; Eliteschule des Fußballs; leistungssportorientierte Zugangsbedingungen",Englisch,www.sportmittelschule-chemnitz.de,Kommunal,10,9,0,229,0,2679d50f-9e8b-4b8c-993a-d31657f85e03,2023/12/15 10:19:55.806+00,GISAdminChemnitz,2023/12/15 10:19:55.806+00,GISAdminChemnitz
12.9296492190006,50.8498707697401,42,53,20,Oberschule,1,Josephinenschule -Oberschule-,,Josephinenschule -OS-,Josephinenplatz 9,09113,Chemnitz,0371 449790,0371 4497918,os-josephinenschule@schulen-chemnitz.de,GTA,"Englisch,",www.josephinenschule.de,Kommunal,10,10,0,215,0,f6aebb7c-4a8b-4902-8717-3406c5e035f3,2023/12/15 10:19:55.806+00,GISAdminChemnitz,2023/12/15 10:19:55.806+00,GISAdminChemnitz
12.8856222242871,50.8057303827128,43,55,20,Oberschule,1,"Oberschule ""Am Flughafen""",,"OS ""Am Flughafen""",Straße Usti nad Labem 277,09119,Chemnitz,0371 271200,0371 27120216,os-amflughafen@schulen-chemnitz.de,"GTA, Kompetenzzentrum für sprachliche Bildung; Vorbereitungsklassen","Englisch, Russisch",www.ms-am-flughafen.homepage.t-online.de,Kommunal,10,12,0,219,0,d9ea881c-e92c-43b0-b565-65f76ce0c816,2023/12/15 10:19:55.821+00,GISAdminChemnitz,2023/12/15 10:19:55.821+00,GISAdminChemnitz
12.8840422701945,50.8325546104525,44,56,20,Oberschule,1,Oberschule Altendorf,,OS Altendorf,Ernst-Heilmann-Straße 11,09116,Chemnitz,0371 369140,0371 3691421,os-altendorf@schulen-chemnitz.de,"GTA, Vorbereitungsklassen","Englisch, Französisch, Japanisch als GTA",www.fv-ms-altendorf.de,Kommunal,10,13,0,221,0,c5fb6fd9-0ba3-40ca-b22b-d7be042acb9b,2023/12/15 10:19:55.821+00,GISAdminChemnitz,2023/12/15 10:19:55.821+00,GISAdminChemnitz
12.9527862375367,50.8310069733292,45,57,20,Oberschule,1,Oberschule Gablenz,"Projekt ""WERK-STATT-SCHULE""",OS Gablenz,Adelsbergstraße 90,09126,Chemnitz,0371 50710,0371 5905962,os-gablenz@schulen-chemnitz.de,"GTA, Projekt ""WERK-STATT-SCHULE""","Englisch, Französisch, Russisch",www.ms-gablenz.de,Kommunal,10,15,0,223,0,90e9631d-9033-4c50-a086-a20ce7275af6,2023/12/15 10:19:55.837+00,GISAdminChemnitz,2023/12/15 10:19:55.837+00,GISAdminChemnitz
12.8251258225996,50.8115128110385,46,59,20,Oberschule,1,Oberschule Reichenbrand,,OS Reichenbrand,Lennéstraße 1,09117,Chemnitz,0371 815750,0371 8157520,os-reichenbrand@schulen-chemnitz.de,GTA,"Englisch, Französisch",www.os-reichenbrand.c.sn.schule.de,Kommunal,10,17,0,227,0,7c0e5b27-43cf-43d0-8d2a-6403382c0ff7,2023/12/15 10:19:55.837+00,GISAdminChemnitz,2023/12/15 10:19:55.837+00,GISAdminChemnitz
12.8733752933211,50.8229833201809,47,60,20,Oberschule,1,Oberschule Schönau/Siegmar,,OS Schönau/Siegmar,Guerickestraße 38,09116,Chemnitz,0371 815760,0371 8157626,os-schoenau@schulen-chemnitz.de,GTA,"Englisch, Russisch, Spanisch",www.c.shuttle.de/ms-schoenau,Kommunal,10,18,0,228,0,c3d84510-74a2-4cce-ae96-9649b0ea872e,2023/12/15 10:19:55.853+00,GISAdminChemnitz,2023/12/15 10:19:55.853+00,GISAdminChemnitz
12.9026935754136,50.8413040029236,48,64,20,Oberschule,1,Untere Luisenschule -Oberschule-,barrierefreies Schulhaus,Untere Luisenschule -OS-,Fritz-Matschke-Straße 21,09113,Chemnitz,0371 374190,0371 3741920,os-untere-luisenschule@schulen-chemnitz.de,"GTA, Vorbereitungsklassen","Englisch, Französisch",www.uls.c.sn.schule.de/,Kommunal,10,22,0,235,0,64e66642-25bd-400a-8c65-c79736d3619b,2023/12/15 10:19:55.853+00,GISAdminChemnitz,2023/12/15 10:19:55.853+00,GISAdminChemnitz
12.8850360603135,50.8633389905466,49,14,10,Grundschule,1,Grundschule Borna,barrierefreies Schulhaus,GS Borna,Wittgensdorfer Straße 121a,09114,Chemnitz,0371 3383290,0371 33832919,gs-borna@schulen-chemnitz.de,"GTA, Hort, Vorbereitungsklassen",,www.gs-borna-chemnitz.de,Kommunal,10,14,40,118,301,c6886535-ed11-45e8-90b3-90cde8e367f0,2023/12/15 10:19:55.868+00,GISAdminChemnitz,2023/12/15 10:19:55.868+00,GISAdminChemnitz
12.9706434670302,50.8764546054577,50,15,10,Grundschule,1,Grundschule Ebersdorf,,GS Ebersdorf,Lichtenauer Straße 45,09131,Chemnitz,0371 410824,0371 410029,gs-ebersdorf@schulen-chemnitz.de,"GTA, Hort",,www.unserebersdorf.de/index.php/grundschule-ebersdorf,Kommunal,10,15,40,119,401,60b8f56c-fb42-4890-970f-ea0dcc927677,2023/12/15 10:19:55.868+00,GISAdminChemnitz,2023/12/15 10:19:55.868+00,GISAdminChemnitz
12.9706932870544,50.7703388508511,51,16,10,Grundschule,1,Grundschule Einsiedel,,GS Einsiedel,Harthauer Weg 5,09123,Chemnitz,037209 2273,037209 70719,gs-einsiedel@schulen-chemnitz.de,"GTA, Hort, Vorbereitungsklassen",,https://www.grundschule-einsiedel.de/,Kommunal,10,16,40,120,705,78f23593-5591-4cbd-8587-0e649f504162,2023/12/15 10:19:55.884+00,GISAdminChemnitz,2023/12/15 10:19:55.884+00,GISAdminChemnitz
13.0207541083092,50.8327410884873,52,17,10,Grundschule,1,Grundschule Euba,,GS Euba,An der Kirche 2,09128,Chemnitz,03726 2923,03726 724726,gs-euba@schulen-chemnitz.de,"GTA, Hort",,www.grundschule.euba-chemnitz.de,Kommunal,10,17,40,122,506,20bc8b1d-d5de-4acb-8e9e-927fcb154b6d,2023/12/15 10:19:55.884+00,GISAdminChemnitz,2023/12/15 10:19:55.884+00,GISAdminChemnitz
12.9645345562452,50.8226694873889,53,18,10,Grundschule,1,Grundschule Gablenz,barrierefreies Schulhaus,GS Gablenz,Carl-von-Ossietzky-Straße 171,09127,Chemnitz,0371 750080,0371 7500819,gs-gablenz@schulen-chemnitz.de,"GTA, Hort, Stützpunktschule zur Integration von Schülern mit Sprachauffälligkeiten, Klassen für Schüler mit LRS",,http://cms.sn.schule.de/gsgablenz/start/impressum/,Kommunal,10,18,40,124,603,2c79e612-03c6-499b-8796-95548258bea7,2023/12/15 10:19:55.900+00,GISAdminChemnitz,2023/12/15 10:19:55.900+00,GISAdminChemnitz
12.9110634513883,50.8726276401017,54,19,10,Grundschule,1,Grundschule Glösa,barrierefreies Schulhaus,GS Glösa,Schulberg 3,09114,Chemnitz,0371 4590440,0371 45904414,gs-gloesa@schulen-chemnitz.de,"GTA, Hort",,https://cms.sachsen.schule/gsgloesa/schulportraet/unser-team.html,Kommunal,10,19,40,125,306,76199e96-3dee-4712-8100-b95eb355f0c0,2023/12/15 10:19:55.900+00,GISAdminChemnitz,2023/12/15 10:19:55.900+00,GISAdminChemnitz
12.9249187665186,50.7761567996218,55,20,10,Grundschule,1,Grundschule Harthau,barrierefreies Schulhaus,GS Harthau,Stöcklstraße 4,09125,Chemnitz,0371 510078,0371 52039114,gs-harthau@schulen-chemnitz.de,"GTA, Hort",,www.grundschule-harthau.de,Kommunal,10,20,40,126,803,99a1865b-3b02-4a27-a73e-8fa375ba8acd,2023/12/15 10:19:55.915+00,GISAdminChemnitz,2023/12/15 10:19:55.915+00,GISAdminChemnitz
12.9132338131318,50.7618107379106,56,21,10,Grundschule,1,Grundschule Klaffenbach,,GS Klaffenbach,Klaffenbacher Hauptstraße 85,09123,Chemnitz,0371 2607084,0371 2677520,gs-klaffenbach@schulen-chemnitz.de,Hort,,www.grundschule-klaffenbach.de,Kommunal,10,21,40,128,804,c015e9ef-746d-4c7b-9a0b-56ba37d22064,2023/12/15 10:19:55.915+00,GISAdminChemnitz,2023/12/15 10:19:55.915+00,GISAdminChemnitz
13.0191493902801,50.8009364390504,57,22,10,Grundschule,1,Grundschule Kleinolbersdorf,,GS Kleinolbersdorf,Ferdinandstraße 97,09128,Chemnitz,0371 772322,0371 7741893,gs-kleinolbersdorf@schulen-chemnitz.de,"GTA, Hort",,www.klein-aberoho.de,Kommunal,10,22,40,129,704,923fcefe-c60e-41ce-b8b4-c38e65bd5f64,2023/12/15 10:19:55.931+00,GISAdminChemnitz,2023/12/15 10:19:55.931+00,GISAdminChemnitz
12.7988219781318,50.7992031026468,58,23,10,Grundschule,1,Grundschule Mittelbach,,GS Mittelbach,Hofer Straße (Mittelbach) 35,09224,Chemnitz,0371 852558,0371 8579488,gs-mittelbach@schulen-chemnitz.de,Hort,,www.gs-mittelbach.de,Kommunal,10,23,40,130,1203,66df9143-a94c-439b-889b-5a4c07ef67d2,2023/12/15 10:19:55.931+00,GISAdminChemnitz,2023/12/15 10:19:55.931+00,GISAdminChemnitz
12.8251258225996,50.8115128110385,59,24,10,Grundschule,1,Grundschule Reichenbrand,,GS Reichenbrand,Lennéstraße 1,09117,Chemnitz,0371 8157521,0371 8157520,gs-reichenbrand@schulen-chemnitz.de,"GTA, Hort",,www.gs-reichenbrand.de,Kommunal,10,24,40,133,103,c32ff25c-46b1-4118-a8f3-86a78270bb41,2023/12/15 10:19:55.946+00,GISAdminChemnitz,2023/12/15 10:19:55.946+00,GISAdminChemnitz
12.9532513549025,50.7978529087167,60,25,10,Grundschule,1,Grundschule Reichenhain,barrierefreies Schulhaus,GS Reichenhain,Genossenschaftsweg 2,09125,Chemnitz,0371 539020,0371 5390218,gs-reichenhain@schulen-chemnitz.de,Hort,,www.gs-reichenhain.de,Kommunal,10,25,40,134,702,73d231be-43cb-4dd4-9a8f-9b519a982784,2023/12/15 10:19:55.946+00,GISAdminChemnitz,2023/12/15 10:19:55.946+00,GISAdminChemnitz
12.8343036073846,50.8272834750025,61,26,10,Grundschule,1,"Grundschule Rabenstein ""Hans Carl von Carlowitz""",barrierefreies Schulhaus,GS Rabenstein,Trützschlerstraße 10,09117,Chemnitz,0371 842060,0371 8420619,gs-rabenstein@schulen-chemnitz.de,"GTA, Hort",,www.grundschule-rottluff.de,Kommunal,10,26,40,132,101,725d1046-18e7-40e7-88a4-ac987da2d4e1,2023/12/15 10:19:55.962+00,GISAdminChemnitz,2023/12/15 10:19:55.962+00,GISAdminChemnitz
12.8356099009993,50.8625592807073,62,27,10,Grundschule,1,Grundschule Röhrsdorf,,GS Röhrsdorf,Beethovenweg 44,09247,Chemnitz,03722 504860,03722 504861,gs-roehrsdorf@schulen-chemnitz.de,"GTA, Hort",,www.grundschule-roehrsdorf.de,Kommunal,10,27,40,135,1201,099d2802-8a14-4858-938a-ff3a49d9a18a,2023/12/15 10:19:55.962+00,GISAdminChemnitz,2023/12/15 10:19:55.962+00,GISAdminChemnitz
12.9305215412994,50.8304238615326,63,69,30,Gymnasium,1,Georgius-Agricola-Gymnasium,barrierefreies Schulhaus,Georgius-Agricola-Gymnasium,Park der Opfer des Faschismus 2,09111,Chemnitz,0371 3989-2700,0371 3989 2799,gym-agricola@schulen-chemnitz.de,"GTA, Profil: naturwissenschaftlich, vertieft sprachliche Ausbildung (bilingualer Zweig in englischer Sprache), Sternwarte","1. Englisch, 2. Spanisch, Latein, 3. Französisch, Russisch, Arbeitsgemeinschaft: Polnisch",www.agricola-gymnasium.de,Kommunal,10,3,0,305,0,e2cc2170-f212-4d6a-8064-5835780f81b6,2023/12/15 10:19:55.978+00,GISAdminChemnitz,2023/12/15 10:19:55.978+00,GISAdminChemnitz
12.9735808965907,50.7830619383323,64,70,30,Gymnasium,1,Gymnasium Einsiedel,barrierefreies Schulhaus,Gymnasium Einsiedel,Niederwaldstraße 11,09123,Chemnitz,037209 6980,037209 698121,gym-einsiedel@schulen-chemnitz.de,"GTA, Profil: naturwissenschaftlich, sprachlich, gesellschaftswissenschaftlich, sportlich","1. Englisch, 2. Französisch, Latein, Russisch 3. Spanisch, Arbeitsgemeinschaft: Cambridge Course",www.gymnasium-einsiedel.de,Kommunal,10,5,0,307,0,bf22c2d0-7077-4fac-a48d-a232189eb279,2023/12/15 10:19:55.978+00,GISAdminChemnitz,2023/12/15 10:19:55.978+00,GISAdminChemnitz
12.9480600569853,50.8353511594525,65,71,30,Gymnasium,1,Johannes-Kepler-Gymnasium,barrierefreies Schulhaus,Johannes-Kepler-Gymnasium,Humboldtplatz 1,09130,Chemnitz,0371 3989-2800,0371 3989 2899,gym-kepler@schulen-chemnitz.de,"GTA, Profil: vertieft mathematisch-naturwissenschaftliche Ausbildung; naturwissenschaftliches Profil","1. Englisch, 2. Französisch, Latein, Russisch, Arbeitsgemeinschaft: Tschechisch",www.kepler.c.sn.schule.de,Kommunal,10,6a,0,308,0,d9caf992-5abe-4663-bb97-b5873ebb5c91,2023/12/15 10:19:55.993+00,GISAdminChemnitz,2023/12/15 10:19:55.993+00,GISAdminChemnitz
12.9421690561178,50.8159174147348,66,73,30,Gymnasium,1,Johann-Wolfgang-von-Goethe-Gymnasium,,Johann-Wolfgang-von-Goethe-Gymnasium,Bernsdorfer Straße 126,09126,Chemnitz,0371 520700,0371 52070221,gym-goethe@schulen-chemnitz.de,"GTA, Profil: naturwissenschaftlich, gesellschaftswissenschaftlich, sprachlich, Vorbereitungsklassen","1. Englisch, 2. Französisch, Spanisch, 3. Latein",www.goethegym-chemnitz.de,Kommunal,10,7,0,310,0,ecae936e-cec6-4a38-8f14-4c5a748ef3eb,2023/12/15 10:19:55.993+00,GISAdminChemnitz,2023/12/15 10:19:55.993+00,GISAdminChemnitz
12.911862861039,50.8352668312807,67,75,30,Gymnasium,2,"Karl-Schmidt-Rottluff-Gymnasium, Haus II",,"Karl-Schmidt-Rottluff-Gymnasium, Haus 2",Hohe Straße 35,09112,Chemnitz,0371 3989 2950,0371 4888599,gym-karl-schmidt-rottluff@schulen-chemnitz.de,"GTA, Profil: sprachlich, naturwissenschaftlich, Vorbereitungsklassen","1. Englisch, 2. Französisch  3. Latein, Arbeitsgemeinschaft: Französisch, Russisch",www.kaschmir-chemnitz.de,Kommunal,10,8b,0,313,0,b733d47b-3c07-4289-afd8-3921d78cd1e4,2023/12/15 10:19:56.009+00,GISAdminChemnitz,2023/12/15 10:19:56.009+00,GISAdminChemnitz
12.936586997522,50.802884141863,68,76,30,Gymnasium,1,Sportgymnasium Chemnitz,barrierefreies Schulhaus,Sportgymnasium,Reichenhainer Straße 210,09125,Chemnitz,0371 4884600,0371 4884699,gym-sport@schulen-chemnitz.de,"GTA, Profil: § 4 Gymnasium: vertieft sportliche Ausbildung; Eliteschule des Sports; Eliteschule des Fußballs
leistungssportorientierte Zugangsbedingungen; Vorbereitungsklassen für Aussiedler-/Ausländerkinder","1. Englisch, 2. Französisch, Russisch, 3. Latein (für Quereinsteiger nur im  Ausnahmefall)",www.sportgymnasium-chemnitz.de,Kommunal,10,10,0,314,0,01157163-9a03-451a-81b0-44ebf5a8ad1d,2023/12/15 10:19:56.009+00,GISAdminChemnitz,2023/12/15 10:19:56.009+00,GISAdminChemnitz
12.9134159452128,50.8328645188838,69,157,30,Gymnasium,1,"Karl-Schmidt-Rottluff-Gymnasium, Haus I",,"Karl-Schmidt-Rottluff-Gymnasium, Haus 1",Hohe Straße 25,09112,Chemnitz,0371 3989 2950,0371 4888598,gym-karl-schmidt-rottluff@schulen-chemnitz.de,"GTA, Profil: sprachlich, naturwissenschaftlich, Vorbereitungsklassen","1. Englisch, 2. Französisch  3. Latein, Arbeitsgemeinschaft: Französisch, Russisch",www.kaschmir-chemnitz.de,Kommunal,10,8a,0,312,0,fdcead3e-4558-4d8b-a536-501a10f57f84,2023/12/15 10:19:56.025+00,GISAdminChemnitz,2023/12/15 10:19:56.025+00,GISAdminChemnitz
12.8980267295606,50.8620186720013,70,286,30,Gymnasium,1,Waldorfschule Chemnitz (Gymnasium),,Waldorfschule (Gym),Sandstraße 102,09114,Chemnitz,0371 334076-0,0371 334076-99,info@waldorfschule-chemnitz.de,,,www.waldorfschule-chemnitz.de,Frei,30,1c,0,905,0,66c38845-290d-43d3-81ca-13cc7a9c139b,2023/12/15 10:19:56.025+00,GISAdminChemnitz,2023/12/15 10:19:56.025+00,GISAdminChemnitz
12.9492516232175,50.8532880687338,71,355,30,Gymnasium,1,Evangelisches Schulzentrum Chemnitz (Gymnasium),,Evangelisches Schulzentrum (Gym),Ludwig-Richter-Straße 21,09131,Chemnitz,0371 4443380,0371 4443389,sekretariat-ms-gym@eszc.de,,,www.eszc.de,Frei,30,2c,0,916,0,df54e5a3-1e45-447e-a804-f4cc25cc09a5,2023/12/15 10:19:56.040+00,GISAdminChemnitz,2023/12/15 10:19:56.040+00,GISAdminChemnitz
12.876749147522,50.8425583937128,72,321,40,Förderschule,1,Landesschule für Blinde und Sehbehinderte Förderzentrum Chemnitz,,Landesschule für Blinde/Sehbehinderte,Flemmingstraße 8g,09116,Chemnitz,0371 80 81 8 137,03 71 80 818 203,blindenschule@sbs.smk.sachsen.de,,,www.blindenschule-chemnitz.de,Land Sachsen,20,1,0,802,0,e3e3be62-0cd1-4a5c-b27a-b12c9a76bd36,2023/12/15 10:19:56.040+00,GISAdminChemnitz,2023/12/15 10:19:56.040+00,GISAdminChemnitz
12.8983775338489,50.8652803778866,73,342,40,Förderschule,2,PARZIVAL-Schule (Förderschule),,Waldorfschule (Förderschule),Auerswalder Straße 120,09114,Chemnitz,0371 334076-70,0371 3378070,parzivalschule@waldorfschule-chemnitz.de,,,www.waldorfschule-chemnitz.de,Frei,30,1d,0,907,0,49c6c921-2dd1-42cb-878e-48d8e0dfee6f,2023/12/15 10:19:56.056+00,GISAdminChemnitz,2023/12/15 10:19:56.056+00,GISAdminChemnitz
12.9354705644914,50.8262194947425,74,98,50,Berufsbildende Schule,1,Berufliches Schulzentrum für Wirtschaft I,barrierefreies Schulhaus,BSZ Wirtschaft I,Lutherstraße 2,09126,Chemnitz,0371 400580,0371 40058115,bsz-wirtschaft-1@schulen-chemnitz.de,"Berufsschule, Fachschule, Fachoberschule",,www.bszI-wirtschaft-chemnitz.de,Kommunal,10,4,0,540,0,d2ab5e8f-22a0-4627-aad6-154e0ff5bfdd,2023/12/15 10:19:56.056+00,GISAdminChemnitz,2023/12/15 10:19:56.056+00,GISAdminChemnitz
12.905603356231,50.8324448877656,75,99,50,Berufsbildende Schule,1,Berufliches Schulzentrum für Wirtschaft II,,BSZ Wirtschaft II,Kanzlerstraße 9,09112,Chemnitz,0371 383120,0371 38312120,bsz-wirtschaft-2@schulen-chemnitz.de,,,www.bszw2-c.de,Kommunal,10,5,0,550,0,de5ef3b8-d992-4410-bb8f-60ce59919136,2023/12/15 10:19:56.071+00,GISAdminChemnitz,2023/12/15 10:19:56.071+00,GISAdminChemnitz
12.9100548692836,50.8319654278385,76,101,50,Berufsbildende Schule,2,Berufliches Schulzentrum für Wirtschaft II  (Außenstelle),,"BSZ Wirtschaft II,  Ast.",Wielandstraße 4,09112,Chemnitz,0371 38312-115,0371 38312-119,bsz-wirtschaft-2@schulen-chemnitz.de,,,www.bszw2-c.de,Kommunal,10,5c,0,551,0,2ee986ba-b328-40bd-92ef-9e7d2f14f28c,2023/12/15 10:19:56.071+00,GISAdminChemnitz,2023/12/15 10:19:56.071+00,GISAdminChemnitz
12.9104159467436,50.8008634518694,77,330,50,Berufsbildende Schule,1,Berufliches Schulzentrum für Technik III  -R.Hartmann-Schule-,barrierefreies Schulhaus,BSZ Technik III - Hartmannschule,Annaberger Straße 186,09120,Chemnitz,0371 4884900,0371 4884999,bsz-technik-3-hartmannschule@schulen-chemnitz.de,"Berufsschule, Fachschule, Fachoberschule",,www.rhs-chemnitz.de,Kommunal,10,3,0,530,0,e6570072-c17c-4245-9e82-f3de94b70408,2023/12/15 10:19:56.087+00,GISAdminChemnitz,2023/12/15 10:19:56.087+00,GISAdminChemnitz
12.9156510937022,50.8383383631828,78,333,50,Berufsbildende Schule,1,Berufliches Schulzentrum für Technik II  -Handwerkerschule-,barrierefreies Schulhaus,BSZ Technik II - Handwerkerschule,Schloßstraße 3,09111,Chemnitz,0371 488-8000,0371 488-8099,bsz-technik-2-handwerkerschule@schulen-chemnitz.de,"Berufsschule, Berufliches Gymnasium, BVJ, Vorbereitungsklassen",,www.bsz-handwerkerschule.de,Kommunal,10,2,0,520,0,5481b7e5-87af-4062-b390-68e20dd082c3,2023/12/15 10:19:56.087+00,GISAdminChemnitz,2023/12/15 10:19:56.087+00,GISAdminChemnitz
12.9295683073502,50.8308275281549,79,334,50,Berufsbildende Schule,1,Berufliches Schulzentrum für Technik I  -Industrieschule-,barrierefreies Schulhaus,BSZ Technik I - Industrieschule,Park der Opfer des Faschismus 1,09111,Chemnitz,0371 3989-1000,0371 3989-1099,bsz-technik-1-industrieschule@schulen-chemnitz.de,"Berufsschule, BGJ, Vorbereitungsklassen",,www.industrieschule.de,Kommunal,10,1,0,510,0,31da7c72-8d41-4875-a124-85400320a480,2023/12/15 10:19:56.103+00,GISAdminChemnitz,2023/12/15 10:19:56.103+00,GISAdminChemnitz
12.9013606031607,50.8450880325514,80,335,50,Berufsbildende Schule,1,"Berufliches Schulzentrum für Ernährung, Gastgewerbe, Gesundheit",barrierefreies Schulhaus,"BSZ Ernährung, Gastgewerbe, Gesundheit",Arthur-Bretschneider-Straße 17,09113,Chemnitz,0371 374360,0371 3743642,bsz-ernaehrung-hauswirtschaft@schulen-chemnitz.de,"Berufsschule, Berufsfachschule, BVJ, Vorbereitungsklassen",,https://cms.sachsen.schule/bszcegg/unser-bsz.html,Kommunal,10,6,0,560,0,ad1af7d7-da59-42c2-a8cc-94fbf66ba510,2023/12/15 10:19:56.103+00,GISAdminChemnitz,2023/12/15 10:19:56.103+00,GISAdminChemnitz
12.9162479011136,50.8353107212991,81,336,50,Berufsbildende Schule,1,Berufliches Schulzentrum für Gesundheit und Sozialwesen,barrierefreies Schulhaus,BSZ Gesundheit und Sozialwesen,An der Markthalle 10,09111,Chemnitz,0371 675210,0371 67521120,bsz-gesundheit-soziales@schulen-chemnitz.de,"Berufsschule, Berufsfachschule, Fachschule, Fachoberschule",,www.bsz-gsc.de,Kommunal,10,7,0,570,0,b5d109cb-05a9-413f-93f8-67cf63cc765e,2023/12/15 10:19:56.118+00,GISAdminChemnitz,2023/12/15 10:19:56.118+00,GISAdminChemnitz
12.8731319197586,50.8388917752462,82,111,50,Berufsbildende Schule,1,Medizinische Berufsfachschule der Klinikum Chemnitz gGmbH - BFS für  bundesrechtlich geregelte Gesundheitsberufe,,Medizinische BFS des Klinikums Chemnitz,Berganger 11,09116,Chemnitz,0371 3391077,0371 4004255,medbfs@skc.de,,,www.klinikum-chemnitz.de,Frei,30,35,0,810,0,43e6aa87-a2fc-48eb-b406-392dbadaacf0,2023/12/15 10:19:56.118+00,GISAdminChemnitz,2023/12/15 10:19:56.118+00,GISAdminChemnitz
12.8114258619804,50.8122186354997,83,123,50,Berufsbildende Schule,1,Berufliches Schulzentrum der FORTIS-AKADEMIE gemeinnützige Bildungs GmbH,,BSZ der FORTIS-AKADEMIE,An der Wiesenmühle 1,09224,Chemnitz,0371 262220,0371 26222-99,bewerbung@fortis-akademie.de,,,www.fortis-akademie.de,Frei,30,7,0,1110,0,485e6376-d11a-449f-93f6-8268c31fad6d,2023/12/15 10:19:56.134+00,GISAdminChemnitz,2023/12/15 10:19:56.134+00,GISAdminChemnitz
12.9178032035355,50.8360977229064,84,125,50,Berufsbildende Schule,1,Euro Akademie Chemnitz,,Euro Akademie Chemnitz,Hartmannstraße 3a,09111,Chemnitz,0371 43311230,0371 433112320,chemnitz@euroakademie.de,,,www.euroakademie.de/de/standorte/chemnitz.html,Frei,30,8,0,1120,0,c0538e37-0f83-4e00-9e33-02d90fa04d53,2023/12/15 10:19:56.134+00,GISAdminChemnitz,2023/12/15 10:19:56.134+00,GISAdminChemnitz
12.9615649576503,50.8377150967919,85,137,50,Berufsbildende Schule,1,"Deutsches Erwachsenen-Bildungswerk in Sachsen gemeinnützige Schulträger-GmbH, Privates beru?iches Schulzentrum für Gesundheitsberufe P?ege und Sozialwesen des DEB in Chemnitz",,DEB in Chemnitz,Heinrich-Schütz-Straße 109,09130,Chemnitz,0371 750180,0371 7501820,chemnitz-fs@deb-gruppe.de,,,http://www.deb.de,Frei,30,18,0,1210,0,3b4f6456-2dae-4254-8c24-1ef7ed22ac95,2023/12/15 10:19:56.150+00,GISAdminChemnitz,2023/12/15 10:19:56.150+00,GISAdminChemnitz
12.825723864672,50.8218377700902,86,141,50,Berufsbildende Schule,1,Medizinische Berufsfachschule für Gesundheits- und Krankenpflege am DRK-Krankenhaus Chemnitz-Rabenstein,,DRK - BFS Gesundheits- und Krankenpflege,Unritzstraße 23,09117,Chemnitz,0371 8329401,0371 8329404,bildungszentrum@drk-khs.de,,,www.drk-chemnitz.de,Frei,30,22,0,1270,0,be6b2ce6-7aa2-4ca0-b40f-a7527571a0fb,2023/12/15 10:19:56.150+00,GISAdminChemnitz,2023/12/15 10:19:56.150+00,GISAdminChemnitz
12.9630366891884,50.8396312463723,87,142,50,Berufsbildende Schule,1,Evangelische Berufsfachschule für Krankenpflege und Altenpflege der Bethanien-Krankenhaus Chemnitz gemeinnützige GmbH,,Evangelische BFS Kranken-/Altenpflege,Zeisigwaldstraße 101,09130,Chemnitz,0371 4301020,0371 4301024,schule@bethanien-sachsen.de,,,www.bethanien-sachsen.de,Frei,30,23,0,1280,0,29b5c797-b29a-45cf-828d-f90a2d95e308,2023/12/15 10:19:56.165+00,GISAdminChemnitz,2023/12/15 10:19:56.165+00,GISAdminChemnitz
12.9222683782439,50.8322536098611,88,147,50,Berufsbildende Schule,1,F+U gemeinnützige Bildungseinrichtung für Fortbildung und Umschulung Sachsen GmbH,,F+U Sachsen gGmbH,Rathausstraße 7,09111,Chemnitz,0371 6660151,0371 6660160,info@fuu-sachsen.de,,,www.fuu-sachsen.de,Frei,30,25,0,1160,0,274ca784-5330-4c51-9be4-23fb99b30339,2023/12/15 10:19:56.165+00,GISAdminChemnitz,2023/12/15 10:19:56.165+00,GISAdminChemnitz
12.9205353393466,50.8238676212042,89,148,50,Berufsbildende Schule,1,bsw - Fachschule für Technik Chemnitz Fachrichtung  Mechatronik im Bildungswerk der Sächsischen Wirtschaft gGmbH,,bsw - Fachschulen für Technik,Annaberger Straße 73,09111,Chemnitz,0351 56362322,0351 56362323,bz-chemnitz@bsw-mail.de,,,www.fachschule-technik-chemnitz.de,Frei,30,26,0,1260,0,0a296a26-1969-4880-be73-822267a3020b,2023/12/15 10:19:56.181+00,GISAdminChemnitz,2023/12/15 10:19:56.181+00,GISAdminChemnitz
12.9220483880177,50.8622370100306,90,283,50,Berufsbildende Schule,1,Berufsschule und Berufsbildende Förderschule des Vereins zur beruflichen Förderung und Ausbildung e. V. (VBFA),,VBFA Berufsschule Chemnitz,Chemnitztalstraße 66a,09114,Chemnitz,0371 44983-0,0371 44983-26,bs2-chemnitz@vbfa.de,,,www.vbfa.de,Frei,30,13b,0,1170,0,660a61d1-05ab-4ecd-8934-abdc79823e62,2023/12/15 10:19:56.181+00,GISAdminChemnitz,2023/12/15 10:19:56.181+00,GISAdminChemnitz
12.905091094823,50.8113337829473,91,309,50,Berufsbildende Schule,1,WBS TRAINING SCHULEN gGmbH,,WBS TRAINING SCHULEN gGmbH,Kauffahrtei 25,09120,Chemnitz,0371  24358120,0371 24358129,chemnitz@wbstraining.de,,,www.wbstraining.de,Frei,30,28,0,1290,0,4978bbf0-8f30-4253-be9d-095e23999d59,2023/12/15 10:19:56.196+00,GISAdminChemnitz,2023/12/15 10:19:56.196+00,GISAdminChemnitz
12.9190978352894,50.8227445270221,92,320,50,Berufsbildende Schule,1,Freie Schulen Chemnitz der ASG - Anerkannten Schulgesellschaft mbH,,Freie Schulen Chemnitz der ASG,Annaberger Straße 79,09120,Chemnitz,0371 530060,0371 5300611,info@freie-schulen-chemnitz.de,,,www.freie-schulen-chemnitz.de,Frei,30,17,0,1200,0,49aaa8e3-7f85-45f3-aecd-46a90e23fc1c,2023/12/15 10:19:56.196+00,GISAdminChemnitz,2023/12/15 10:19:56.196+00,GISAdminChemnitz
12.9184145796797,50.8179335841217,93,325,50,Berufsbildende Schule,1,Berufsfachschule und Fachschule für Sozialwesen und Berufsfachschule für Pflegehilfe der SSA - Sächsische Sozialakademie GmbH,,SSA - Sächsische Sozialakademie,Altchemnitzer Straße 60,09120,Chemnitz,0371 27868500,0371 27868529,info@sozialakademie-sachsen.de,,,www.sozialakademie-sachsen.de,Frei,30,15,0,1190,0,060825f9-097e-4d1b-a02f-ecb773c0c487,2023/12/15 10:19:56.212+00,GISAdminChemnitz,2023/12/15 10:19:56.212+00,GISAdminChemnitz
12.8769838081166,50.8420242251265,94,328,50,Berufsbildende Schule,1,"Berufsbildende Schule am Berufsbildungswerk Chemnitz der SFZ Förderzentrum gGmbH 
am Berufsbildungswerk 
Chemnitz der SFZ 
Förderzentrum gGmbH",,SFZ Förderzentrum gGmbH Berufsbild. Schu,Flemmingstraße 8c,09116,Chemnitz,0371 3344-0,0371 3344-350,über Kontaktformular www.sfz-chemnitz.de,,,www.sfz-chemnitz.de,Frei,30,9,0,1130,0,52be36c0-5dd4-452e-9224-9ee5c36fe8b0,2023/12/15 10:19:56.228+00,GISAdminChemnitz,2023/12/15 10:19:56.228+00,GISAdminChemnitz
12.9190978352894,50.8227445270221,95,331,50,Berufsbildende Schule,1,Berufsschule Chemnitz der ASG - Anerkannten Schulgesellschaft Sachsen mbH,,Berufsschule Chemnitz der ASG,Annaberger Straße 79,09120,Chemnitz,0371 560414-25,0371 53006-23,info@freie-schulen-chemnitz.de,,,www.berufsschule-chemnitz,Frei,30,27,0,1250,0,0e88d0cf-14cc-453b-945f-da4aa7a17924,2023/12/15 10:19:56.228+00,GISAdminChemnitz,2023/12/15 10:19:56.228+00,GISAdminChemnitz
12.9216451460311,50.8501413639865,96,332,50,Berufsbildende Schule,1,Helmut-Rödler-Schule für Krankengymnastik/Physiotherapie gGmbH,,Helmut-Rödler-Schule,Schönherrstraße 8,09113,Chemnitz,0371 5905271,0371 5204472,info@roedler-schule-chemnitz.de,,,www.roedler-schule-chemnitz.de,Frei,30,20,0,1230,0,b80299aa-44eb-430d-a380-17e2f008e3eb,2023/12/15 10:19:56.243+00,GISAdminChemnitz,2023/12/15 10:19:56.243+00,GISAdminChemnitz
12.9392525458278,50.8513927470994,97,344,50,Berufsbildende Schule,1,DPFA-Schulen gemeinnützige GmbH - Bildungszentrum Chemnitz,,DPFA - Schulen gemeinnützige GmbH,Emilienstraße 50,09113,Chemnitz,0371 45901130,0371 45901-111 ,gl.schulen@dpfa.de,,,www.dpfa.de/,Frei,30,6,0,1101,0,931f7402-1179-45ff-afa6-d45ea9641524,2023/12/15 10:19:56.243+00,GISAdminChemnitz,2023/12/15 10:19:56.243+00,GISAdminChemnitz
12.9273051599201,50.8188464716151,98,352,50,Berufsbildende Schule,1,Ludwig Fresenius Schulen GmbH,,Ludwig Fresenius Schulen,Ebertstraße 10,09126,Chemnitz,0371 227004,0371 2824849,chemnitz@die-schule.de,,,www.die-schule.de,Frei,30,19,0,1220,0,9533707e-e715-4dca-bc79-47a261331d7c,2023/12/15 10:19:56.259+00,GISAdminChemnitz,2023/12/15 10:19:56.259+00,GISAdminChemnitz
12.9466199667805,50.8292903474397,99,367,50,Berufsbildende Schule,1,Bildungs- und InnovationsPortal Chemnitz - Berufsfachschule für Altenpflege,,BIP Chemnitz,Bernhardstraße 68,09126,Chemnitz,0371 5265-550,0371 5265-559,info@bip-chemnitz.de,,,www.bip-chemnitz.de,Frei,30,30,0,1300,0,6c4a897d-c533-48a6-a5ee-917b3028f017,2023/12/15 10:19:56.259+00,GISAdminChemnitz,2023/12/15 10:19:56.259+00,GISAdminChemnitz
12.8488096561894,50.8117952757757,100,475,50,Berufsbildende Schule,1,Fachschule für Technik der Gemeinnützigen Gesellschaft TUV Rheinland Bildungswerk mbH,,TÜV Bildungswerk gGmbH - FS Technik,Otto-Schmerbach-Straße 19,09117,Chemnitz,0371 8661725,0371 8661726,schule-chemnitz@de.tuv.com,,,www.tuv.com/schule-chemnitz,Frei,30,14,0,1180,0,dcca97dc-0f78-49b2-b9a5-47a96291ca04,2023/12/15 10:19:56.275+00,GISAdminChemnitz,2023/12/15 10:19:56.275+00,GISAdminChemnitz
12.908241577471,50.8077030069542,101,494,50,Berufsbildende Schule,1,Berufsfachschule für Sozialwesen der SBH Südost GmbH,,BFS Sozialwesen SBH Südost GmbH,Paul-Gruner-Straße 58,09120,Chemnitz,0371 4000510,0371 40005130,info@s-b-h.deinfo-chemnitz@sbh-suedost.de,,,www.stiftung-bildung-handwerk.de/,Frei,30,31,0,1310,0,f62941f7-ccc6-46bd-b0d4-344c0ae54ad9,2023/12/15 10:19:56.275+00,GISAdminChemnitz,2023/12/15 10:19:56.275+00,GISAdminChemnitz
12.9033953947262,50.791601893186,102,105,60,Schule des zweiten Bildungsweges,1,Abendoberschule,,Abendoberschule,Arno-Schreiter-Straße 3,09123,Chemnitz,0371 9091022,0371 9091021,abendoberschule@schulen-chemnitz.de,"Vorkurs Klasse 8, Fördern bei Lernschwierigkeiten in Mathematik, Deutsch, Englisch",,www.abendmittelschule-chemnitz.de.tl/,Kommunal,10,1,0,601,0,d0047661-ea87-4552-9996-e3634cfa5587,2023/12/15 10:19:56.290+00,GISAdminChemnitz,2023/12/15 10:19:56.290+00,GISAdminChemnitz
12.9033953947262,50.791601893186,103,106,60,Schule des zweiten Bildungsweges,1,Abendgymnasium,,Abendgymnasium,Arno-Schreiter-Straße 3,09123,Chemnitz,0371 415248,0371 26207360,abendgymnasium@schulen-chemnitz.de,"Abi-Online, Fördern bei Lernschwierigkeiten in Mathematik und Deutsch",,www.abendgymnasium-chemnitz.de,Kommunal,10,2,0,602,0,118694b0-7509-42ff-94f8-3e9dd2e8ec30,2023/12/15 10:19:56.290+00,GISAdminChemnitz,2023/12/15 10:19:56.290+00,GISAdminChemnitz
12.9277031640016,50.8255564985822,104,107,90,Sonstige Einrichtung,1,Medienpädagogisches Zentrum,,Medienpädagogisches Zentrum,Ritterstraße 7,09111,Chemnitz,0371 5619050,0371 56190527,mpz-@schulen-chemnitz.de,,,www.mpz-chemnitz.de,Kommunal,10,1,0,701,0,4b191c55-777b-4f55-af0e-d87df92ae5a3,2023/12/15 10:19:56.306+00,GISAdminChemnitz,2023/12/15 10:19:56.306+00,GISAdminChemnitz
12.8889423266504,50.7930311466346,105,108,90,Sonstige Einrichtung,1,Schulplanetarium,,Schulplanetarium,Albert-Köhler-Straße 48,09122,Chemnitz,0371 9099713,0371 9099719,info@planetarium-chemnitz.de,,,www.planetarium-chemnitz.de,Kommunal,10,2,0,702,0,0055282f-ffd1-4744-be77-902e6e83b2e9,2023/12/15 10:19:56.306+00,GISAdminChemnitz,2023/12/15 10:19:56.306+00,GISAdminChemnitz
12.936745763871,50.8059486718153,106,109,90,Sonstige Einrichtung,1,Internat am Sportgymnasium,,Sportinternat,Reichenhainer Straße 154,09125,Chemnitz,0371 4884670,0371 4884697,sportinternat@schulen-chemnitz.de,,,www.sportgymnasium-chemnitz.de,Kommunal,10,3,0,703,0,4ff0f300-55a3-416b-a551-f175dd0b77c2,2023/12/15 10:19:56.321+00,GISAdminChemnitz,2023/12/15 10:19:56.321+00,GISAdminChemnitz
12.9559131334516,50.8392077274386,107,110,90,Sonstige Einrichtung,1,Heim für körper- und mehrfachbehinderte Kinder und Jugendliche,,GTB+Heim für Körperbehinderte,Heinrich-Schütz-Straße 65,09130,Chemnitz,0371 3989-3100,0371 3989-3149,heim-koe@schulen-chemnitz.de,,,www.heim-koe.de,Kommunal,10,4,0,704,0,acddbf7f-b8b2-4411-bff3-e1b41b58837d,2023/12/15 10:19:56.321+00,GISAdminChemnitz,2023/12/15 10:19:56.321+00,GISAdminChemnitz
12.9591959229599,50.8338112912545,108,363,30,Gymnasium,1,Montessori-Schule Chemnitz - Freie integrative Schule -Gymnasium-,,Montessori-Schule (Gym),Fürstenstraße 147,09130,Chemnitz,0371 2804228,0371 4323376,sekundarstufe@montessoriverein-chemnitz.de,,,www.montessori-chemnitz.de,Frei,30,3c,0,925,0,353bfcc3-6be1-4471-b2bc-fc7ecf78c2f2,2023/12/15 10:19:56.337+00,GISAdminChemnitz,2023/12/15 10:19:56.337+00,GISAdminChemnitz
12.9392525458278,50.8513927470994,109,480,30,Gymnasium,1,DPFA-Schulen gemeinnützige GmbH -Gymnasium-,,DPFA-Regenbogen-Gymnasium Chemnitz,Emilienstraße 50,09131,Chemnitz,0371 45901100,0371 45901111,chemnitz.gymnasium@dpfa.de,,,www.regenbogen-schulen.de,Frei,30,24c,0,955,0,391387c3-51ee-42c2-a9db-9308126c9102,2023/12/15 10:19:56.337+00,GISAdminChemnitz,2023/12/15 10:19:56.337+00,GISAdminChemnitz
12.9352089883882,50.7978521601097,110,493,30,Gymnasium,1,gruuna Schule gGmbH (Gymnasium),,gruuna Schule gGmbH (Gymnasium),Saydaer Straße 21,09125,Chemnitz,0371 33715680,,info@gruuna.schule,,,www.gruuna.schule,Frei,30,33,0,973,0,a50b0f76-2aef-4d74-a6d9-561e8d17f84d,2023/12/15 10:19:56.353+00,GISAdminChemnitz,2023/12/15 10:19:56.353+00,GISAdminChemnitz
12.9180880136631,50.8421656127373,111,498,30,Gymnasium,1,Internationales Stefan-Heym-Gymnasium,,Internationales Stefan-Heym-Gymnasium,Seumestraße 2,09111,Chemnitz,0371 66601-20,,shg@fuu-sachsen.de,,,https://stefan-heym-gymnasium.de/,Frei,30,,0,1350,0,25f25aed-5ea1-4a44-be88-ed05cd1912e8,2023/12/15 10:19:56.353+00,GISAdminChemnitz,2023/12/15 10:19:56.353+00,GISAdminChemnitz
12.954409907451,50.8394367197235,112,77,40,Förderschule,1,"Terra Nova Campus, Die Entdeckerschule, Förderzentrum mit dem Förderschwerpunkt körperliche und motorische Entwicklung",barrierefreies Schulhaus,Terra Nova Campus - Die Entdeckerschule,Heinrich-Schütz-Straße 61,09130,Chemnitz,0371 3989-3001,0371 3989-3099,fs-entdeckerschule@schulen-chemnitz.de,"GTA, Deutsch, Matematik, Englisch, LRS, Dyskalkulie, Logopädie, Ergotherapie, Physiotherapie, unterstützte Kommunikation, DaZ",,www.terra-nova-campus.de,Kommunal,10,1,0,430,0,a7e2f71d-67b2-48a8-8387-59c4ea4e65a0,2023/12/15 10:19:56.368+00,GISAdminChemnitz,2023/12/15 10:19:56.368+00,GISAdminChemnitz
12.8994600283918,50.8147593898924,113,78,40,Förderschule,1,"Förderzentrum ""Georg Götz"", Schule mit dem Förderschwerpunkt Hören","Beratungsstelle: Richard-Wagner-Straße 76, 09120 Chemnitz","Förderzentrum ""Georg Götz"",  FSP Hören",Richard-Wagner-Straße 76,09120,Chemnitz,0371 272090,0371 2720926,fs-goetz-hoergeschaedigtenschule@schulen-chemnitz.de,"GTA, Deutsch, LRS, Ergotherapie, Motorik/Konzentration, Logopädie, Hörtraining, Lautsprachbegleitende Gebärde (LBG)",,www.georg-goetz-schule.de,Kommunal,10,2,0,410,0,11a5bd0b-9c09-4994-9422-40c7bc86c9df,2023/12/15 10:19:56.368+00,GISAdminChemnitz,2023/12/15 10:19:56.368+00,GISAdminChemnitz
12.8803597808859,50.7874926432219,114,79,40,Förderschule,1,"Schule mit dem Förderschwerpunkt Sprache  ""Ernst Busch """,,"Schule FSP Sprache ""Ernst Busch""",Ernst-Wabra-Straße 34,09123,Chemnitz,0371 381660,0371 3816626,fs-busch@schulen-chemnitz.de,"GTA, Deutsch, Mathematik, LRS, Ergotherapie, Motorik/Konzentration",,www.shs-ernst-busch.de,Kommunal,10,3,0,470,0,162b1ed2-69bb-4ae9-be75-f055e9205b45,2023/12/15 10:19:56.384+00,GISAdminChemnitz,2023/12/15 10:19:56.384+00,GISAdminChemnitz
12.9068504559025,50.835447608084,115,81,40,Förderschule,1,"Friedrich- Fröbel-Schule, Schule mit dem Förderschwerpunkt Lernen",,F.-Fröbel-Schule,Reichsstraße 45,09112,Chemnitz,0371 381650,0371 3816526,fs-froebel@schulen-chemnitz.de,"GTA, Deutsch, Mathematik, LRS, Ergotherapie, Motorik/Konzentration", ,https://schuldatenbank.sachsen.de/index.php?id=100&institution_key=4220208,Kommunal,10,5,0,440,0,f1c5eb03-08d5-445b-b5cb-b4bdee37c81c,2023/12/15 10:19:56.384+00,GISAdminChemnitz,2023/12/15 10:19:56.384+00,GISAdminChemnitz
12.9415871235391,50.8364340254571,116,82,40,Förderschule,1,"Förderzentrum mit dem Förderschwerpunkt Lernen  ""Johann Heinrich Pestalozzi """,,"Förderzentr.""J.-H.-Pestalozzi""",Ludwig-Kirsch-Straße 29,09130,Chemnitz,0371 36777210,0371 367772120,fs-pestalozzi@schulen-chemnitz.de,"GTA, Deutsch, Mathematik, LRS, Ergotherapie, Motorik/Konzentration, Sprache/DAZ, Leseambulanz",,www.pestalozzischule-chemnitz.de,Kommunal,10,6,0,450,0,3f44cd2c-d7a2-4e6d-b0f1-a9d44f627a43,2023/12/15 10:19:56.400+00,GISAdminChemnitz,2023/12/15 10:19:56.400+00,GISAdminChemnitz
12.9110148524672,50.7993813312941,117,83,40,Förderschule,1,"Schule Altchemnitz, Förderzentrum mit dem Förderschwerpunkt Lernen","Baubedingte Auslagerung bis voraussichtlich Ende Schuljahr 2023/2024 an den Standort Philippstraße 20, 09125 Chemnitz",Schule Altchemnitz,Schulstraße 2,09125,Chemnitz,0371 539010,0371 5390126,fs-altchemnitz@schulen-chemnitz.de,,,www.schulealtchemnitz.de,Kommunal,10,7,0,460,0,cbcd5f8b-82f6-4f71-82f6-422fa4130f7b,2023/12/15 10:19:56.400+00,GISAdminChemnitz,2023/12/15 10:19:56.400+00,GISAdminChemnitz
12.8928433256839,50.8030042437469,118,85,40,Förderschule,1,"Sonderpädagogisches Förderzentrum  ""Johannes Trüper "", Schule mit dem Förderschwerpunkt emotionale und soziale Entwicklung, Haus I",,"J.-Trüper-Schule, Haus 1",Scheffelstraße 18,09120,Chemnitz,0371 281570,0371 2815721,fs-trueper@schulen-chemnitz.de,"LRS, Motorik/Konzentration",,https://cms.sachsen.schule/sfectrue/start/neuigkeiten.html,Kommunal,10,9a,0,481,0,67b348fe-53ec-45a0-858f-d468f4ba18a6,2023/12/15 10:19:56.415+00,GISAdminChemnitz,2023/12/15 10:19:56.415+00,GISAdminChemnitz
12.895297700598,50.8044957626574,119,86,40,Förderschule,2,"Sonderpädagogisches Förderzentrum  ""Johannes Trüper "", Schule mit dem Förderschwerpunkt emotionale und soziale Entwicklung, Haus II",,"J.-Trüper-Schule, Haus 2",Friedrich-Hähnel-Straße 86,09120,Chemnitz,0371 229189,-,fs-trueper@schulen-chemnitz.de,"LRS, Motorik/Konzentration",,https://cms.sachsen.schule/sfectrue/start/neuigkeiten.html,Kommunal,10,9b,0,482,0,fc05158c-63fd-4406-9106-65cc4590addf,2023/12/15 10:19:56.415+00,GISAdminChemnitz,2023/12/15 10:19:56.415+00,GISAdminChemnitz
12.88386661049,50.8436776723467,120,88,40,Förderschule,2,"Planetenschule - Klinikschule Chemnitz, Haus II",,"Planetenschule -Klinikschule, Haus 2",Flemmingstraße 4,09116,Chemnitz,0371 39898454,0371 39898455,fs-planetenschule-klinikschule@schulen-chemnitz.de,"LRS, Motorik/Konzentration",,www.planetenschule-chemnitz.de,Kommunal,10,10b,0,492,0,124f19ae-37e7-4c22-85a2-9c2e25d77f8b,2023/12/15 10:19:56.431+00,GISAdminChemnitz,2023/12/15 10:19:56.431+00,GISAdminChemnitz
12.8950628249514,50.7974301121235,121,89,40,Förderschule,1,"Janusz- Korczak-Schule, Schule mit dem Förderschwerpunkt geistige Entwicklung","barrierefreies Schulhaus, temporäre Auslagerung der Oberstufen- und Werkstufenklassen an die ehemalige Grundschule Rottluf, Jegendweg 1a, 09116 Chemnitz","J.-Korczak-Schule, FSP geistige Entwicklung",Max-Schäller-Straße 1,09122,Chemnitz,0371 225095,0371 225040,fs-korczak@schulen-chemnitz.de,"GTA, Deutsch, Mathematik, Singen, Spielen, Tanzen, tiergestützte Therapie, Ergotherapie, Motopädie, Motorik/Konzentration, Schwimmen",,www.janusz-korczak-schulechemnitz.de.tl,Kommunal,10,11,0,421,0,f81522f4-0c59-4176-afc0-30a48eb7e84c,2023/12/15 10:19:56.431+00,GISAdminChemnitz,2023/12/15 10:19:56.431+00,GISAdminChemnitz
12.9665728167273,50.8316116358909,122,90,40,Förderschule,1,"Schule  ""Am Zeisigwald "", Schule mit dem Förderschwerpunkt geistige Entwicklung","temporäre Auslagerung der Oberstufen- und Werkstufenklassen an die ehemalige Grundschule Rottluf, Jegendweg 1a, 09116 Chemnitz","Schule ""Am Zeisigwald"", FSP geistige Entw.",Ernst-Moritz-Arndt-Straße 1a,09130,Chemnitz,0371 7008770,0371 70087718,fs-amzeisigwald@schulen-chemnitz.de,"GTA, Ergotherapie, Logopädie, Physiotherapie, Motopädie",,www.amzeisigwald.de,Kommunal,10,12,0,422,0,21ae40d2-5528-472b-adc5-c1c5e4ce6f22,2023/12/15 10:19:56.446+00,GISAdminChemnitz,2023/12/15 10:19:56.446+00,GISAdminChemnitz
12.8940954658364,50.7922364098237,123,163,40,Förderschule,2,"Sonderpädagogisches Förderzentrum ""J. Trüper"" Projekt ""Zwischenstopp""",,"J.-Trüper-Schule, Projekt",Wilhelm-Firl-Straße 4,09122,Chemnitz,0371 2821288,-,fs-trueper@schulen-chemnitz.de,,,https://cms.sachsen.schule/sfectrue/start/neuigkeiten.html,Kommunal,10,,0,484,0,dc1fb309-3633-4e31-b614-a745560935d2,2023/12/15 10:19:56.446+00,GISAdminChemnitz,2023/12/15 10:19:56.446+00,GISAdminChemnitz
12.9538293331668,50.8512004371741,124,340,40,Förderschule,1,"Planetenschule - Klinikschule Chemnitz, Haus I",,"Planetenschule -Klinikschule, Haus 1",Dresdner Straße 178,09131,Chemnitz,0371 83441230,0371 83441239,fs-planetenschule-klinikschule@schulen-chemnitz.de,"LRS, Motorik/Konzentration",,www.planetenschule-chemnitz.de,Kommunal,10,10a,0,491,0,94887006-8f7f-4dac-8615-dbb785232f9b,2023/12/15 10:19:56.462+00,GISAdminChemnitz,2023/12/15 10:19:56.462+00,GISAdminChemnitz
12.9033953947262,50.791601893186,125,477,40,Förderschule,2,Schule mit dem Förderschwerpunkt Sprache „Ernst Busch“  - Oberschulteil,,"Schule FSP Sprache ""Ernst Busch"" - OS",Arno-Schreiter-Straße 3,09123,Chemnitz,0371 381660,0371 3816626,fs-busch@schulen-chemnitz.de,"GTA, Deutsch, Mathematik, LRS, Ergotherapie, Motorik/Konzentration",,http://www.shs-ernst-busch.de,Kommunal,10,8b,0,472,0,82a585e2-ec4c-4a50-b66c-50195cabcc88,2023/12/15 10:19:56.462+00,GISAdminChemnitz,2023/12/15 10:19:56.462+00,GISAdminChemnitz
12.8803597808859,50.7874926432219,126,479,40,Förderschule,1,Schule mit dem Förderschwerpunkt Sprache „Ernst Busch“  - Grundschulteil,,"Schule FSP Sprache ""Ernst Busch"" - GS",Ernst-Wabra-Straße 34,09123,Chemnitz,0371 381660,0371 2668426,fs-busch@schulen-chemnitz.de,"GTA, Deutsch, Mathematik, LRS, Ergotherapie, Motorik/Konzentration",,http://www.shs-ernst-busch.de,Kommunal,10,8a,0,471,0,29ac6aaf-9ab9-468d-8187-0cbe2b370940,2023/12/15 10:19:56.478+00,GISAdminChemnitz,2023/12/15 10:19:56.478+00,GISAdminChemnitz
12.91265888046,50.8239270383139,127,66,20,Oberschule,1,Chemnitzer Schulmodell  (Grund- und Oberschule),barrierefreies Schulhaus,Chemnitzer Schulmodell (GS+OS),Stollberger Straße 25,09119,Chemnitz,0371 5338810,0371 533881218,chemnitzer-schulmodell@schulen-chemnitz.de,"GTA, Hort, Stadtoffene Schule","Englisch, Französisch",www.schulmodell.de,Kommunal,10,24,0,270,0,83bebfe6-ce8b-4256-8ca6-8f6432badf8b,2023/12/15 10:19:56.478+00,GISAdminChemnitz,2023/12/15 10:19:56.478+00,GISAdminChemnitz
12.9574577590282,50.8319797356975,128,238,20,Oberschule,2,"Projekt ""WERK-STATT-SCHULE"" (Stadtmission Chemnitz)",,"Projekt ""WERK-STATT-SCHULE""",Scharnhorststraße 2,09130,Chemnitz,0371 8205803,-,,,,,Kommunal,10,16,0,224,0,c13fc3e2-770b-471d-9b9a-f92999ba18d7,2023/12/15 10:19:56.493+00,GISAdminChemnitz,2023/12/15 10:19:56.493+00,GISAdminChemnitz
12.9277031640016,50.8255564985822,129,322,20,Oberschule,2,"Projekt  ""Produktives Lernen""",,"Projekt  ""Produktives Lernen""",Ritterstraße 7,09111,Chemnitz,0371 56190580,0371 56190581,os-weerth-produktiveslernen@schulen-chemnitz.de,,,,Kommunal,10,,0,211,0,f60e28b3-2efe-45dc-8429-8e3e42397b7c,2023/12/15 10:19:56.493+00,GISAdminChemnitz,2023/12/15 10:19:56.493+00,GISAdminChemnitz
12.902724392555,50.7914847502766,130,482,20,Oberschule,1,Alexander-von-Humboldt-Oberschule Chemnitz,barrierefreies Schulhaus,Alexander-von-Humboldt-OS Chemnitz,Arno-Schreiter-Straße 1,09123,Chemnitz,0371 26212190,0371 262121919,os-arnoschreiter1@schulen-chemnitz.de,GTA,,https://schuldatenbank.sachsen.de/index.php?id=100&institution_key=4233037,Kommunal,10,1a,0,202,0,1927fc4c-31c0-4075-a6df-095b8f835f72,2023/12/15 10:19:56.509+00,GISAdminChemnitz,2023/12/15 10:19:56.509+00,GISAdminChemnitz
12.9323428892073,50.8195696325865,131,499,20,Oberschule,,Marianne-Brandt-Oberschule,,Marianne-Brandt-OS,Vettersstraße 34,9126,Chemnitz,0371 33565250,,os-mariannebrandt@schulen-chemnitz.de,"GTA, Inklusion, jüdischer Religionsunterricht",,https://cms.sachsen.schule/osmariannebrandt/start.html,Kommunal,10,,0,1360,0,850b4e0f-f1f3-41af-9ead-7b447b7f3d38,2023/12/15 10:19:56.509+00,GISAdminChemnitz,2023/12/15 10:19:56.509+00,GISAdminChemnitz
12.913737571657,50.8378573302462,132,500,20,Oberschule,1,"Oberschule ""Am Hartmannplatz"" Chemnitz","barrierefreies Schulhaus, bis Ende Schuljahr 2023/24 zunächst Außenstelle der Unteren Luisenschule -Oberschule-","OS ""Am Hartmannplatz""",Hartmannstraße 21,09113,Chemnitz,0371 3356540,,os-hartmannplatz@schulen-chemnitz.de,GTA,,,Kommunal,10,,0,1370,0,02e04821-daba-4e7a-b0e6-c3afea070c4e,2023/12/15 10:19:56.525+00,GISAdminChemnitz,2023/12/15 10:19:56.525+00,GISAdminChemnitz
12.9492516232175,50.8532880687338,133,117,20,Oberschule,1,Evangelisches Schulzentrum Chemnitz (Oberschule),,Evangelisches Schulzentrum (OS),Ludwig-Richter-Straße 21,09131,Chemnitz,0371 4443380,0371 44433811,sekretariat-ms-gym@eszc.de,,,www.eszc.de,Frei,30,2b,0,915,0,de4aac49-6baa-45a0-85ed-01ae41df1fae,2023/12/15 10:19:56.525+00,GISAdminChemnitz,2023/12/15 10:19:56.525+00,GISAdminChemnitz
12.9591959229599,50.8338112912545,134,119,20,Oberschule,1,Montessori-Schule Chemnitz - Freie integrative Schule -Oberschule-,,Montessori-Schule (OS),Fürstenstraße 147,09130,Chemnitz,0371 2804228,0371 4323376,sekundarstufe@montessoriverein-chemnitz.de,,,www.montessori-chemnitz.de,Frei,30,3b,0,924,0,7f05dee2-776f-4c1b-977a-89c0be6e851c,2023/12/15 10:19:56.540+00,GISAdminChemnitz,2023/12/15 10:19:56.540+00,GISAdminChemnitz
12.8980267295606,50.8620186720013,135,358,20,Oberschule,1,Waldorfschule Chemnitz (Oberschule),,Waldorfschule (OS),Sandstraße 102,09114,Chemnitz,0371 334076-0,0371 334076-99,info@waldorfschule-chemnitz.de,,,www.waldorfschule-chemnitz.de,Frei,30,1b,0,904,0,fbd055f0-4ec9-4f97-aca0-b4e1a6330f04,2023/12/15 10:19:56.540+00,GISAdminChemnitz,2023/12/15 10:19:56.540+00,GISAdminChemnitz
12.9392525458278,50.8513927470994,136,476,20,Oberschule,1,DPFA-Schulen gemeinnützige GmbH -Oberschule-,,DPFA-Regenbogen-Oberschule Chemnitz,Emilienstraße 50,09131,Chemnitz,0371 45901100,0371 45901111,chemnitz.oberschule@dpfa.de,,,www.regenbogen-schulen.de,Frei,30,24b,0,954,0,ddaffd40-6c76-4ba0-8b8d-15137dd239c4,2023/12/15 10:19:56.556+00,GISAdminChemnitz,2023/12/15 10:19:56.556+00,GISAdminChemnitz
12.8774888058499,50.8310585585904,137,487,20,Oberschule,1,Friedrich August III. Oberschule,,Friedrich August III. Oberschule,Waldenburger Straße 63,09116,Chemnitz,0371 382430,,info@fa-os.eu,,,https://fa-os.eu/,Frei,30,34,0,975,0,d47ef171-848f-49f6-963a-388ffd34698d,2023/12/15 10:19:56.556+00,GISAdminChemnitz,2023/12/15 10:19:56.556+00,GISAdminChemnitz
12.9352089883882,50.7978521601097,138,492,20,Oberschule,1,gruuna Schule gGmbH (Oberschule),,gruuna Schule gGmbH (Oberschule),Saydaer Straße 21,09125,Chemnitz,0371 33715680,-,info@gruuna.schule,,,www.gruuna.schule,Frei,30,32,0,972,0,89d1a9ea-1303-4ec6-82cc-6dd9e23c6893,2023/12/15 10:19:56.571+00,GISAdminChemnitz,2023/12/15 10:19:56.571+00,GISAdminChemnitz
12.9024222464489,50.8354310560147,139,67,30,Gymnasium,1,Dr.-Wilhelm-André-Gymnasium,,Dr.-Wilhelm-André-Gymnasium,Henriettenstraße 35,09112,Chemnitz,0371 382140,0371 3821424,gym-andre@schulen-chemnitz.de,"GTA, Profil: naturwissenschaftlich, künstlerisch, sportlich, Projekt Art meets Science","1. Englisch, 2. Französisch, Russisch, Latein, Arbeitsgemeinschaft: vertieft Englisch",www.andre.c.sn.schule.de,Kommunal,10,2a,0,302,0,b803cef4-a2ed-4999-b2a3-7f1ce203212c,2023/12/15 10:19:56.571+00,GISAdminChemnitz,2023/12/15 10:19:56.571+00,GISAdminChemnitz
